{"type":"FeatureCollection","features":[{"type":"Feature","properties":{"source_id":"osm:node/10683978726","source_name":"OpenStreetMap / OpenSeaMap via QLever","source_version":"qlever-osm-planet-query-2026-09-16","poi_type":"marina","categories":["marina","harbour"],"name":"Unnamed marine facility","confidence":"MEDIUM","classification_rule":"leisure=marina or marina harbour category","tags":{"leisure":"marina","seamark:type":"harbour","seamark:harbour:category":"marina"}},"geometry":{"type":"Point","coordinates":[27.153604,36.612959]}},{"type":"Feature","properties":{"source_id":"osm:node/12919376691","source_name":"OpenStreetMap / OpenSeaMap via QLever","source_version":"qlever-osm-planet-query-2026-09-16","poi_type":"marina","categories":["marina"],"name":"Unnamed marine facility","confidence":"MEDIUM","classification_rule":"leisure=marina or marina harbour category","tags":{"leisure":"marina","seamark:type":"anchorage","seamark:harbour:category":"marina_no_facilities"}},"geometry":{"type":"Point","coordinates":[27.450873,36.98616]}},{"type":"Feature","properties":{"source_id":"osm:node/1345105577","source_name":"OpenStreetMap / OpenSeaMap via QLever","source_version":"qlever-osm-planet-query-2026-09-16","poi_type":"harbour","categories":["harbour"],"name":"K\u00f6rmen Liman\u0131","confidence":"LOW","classification_rule":"seamark:type=harbour","tags":{"seamark:type":"harbour","name":"K\u00f6rmen Liman\u0131","seamark:harbour:category":"ferry"}},"geometry":{"type":"Point","coordinates":[27.616061,36.770465]}},{"type":"Feature","properties":{"source_id":"osm:node/14039199957","source_name":"OpenStreetMap / OpenSeaMap via QLever","source_version":"qlever-osm-planet-query-2026-09-16","poi_type":"marina","categories":["marina","harbour"],"name":"Unnamed marine facility","confidence":"MEDIUM","classification_rule":"leisure=marina or marina harbour category","tags":{"leisure":"marina","seamark:type":"harbour","seamark:harbour:category":"marina"}},"geometry":{"type":"Point","coordinates":[27.028195,36.973801]}},{"type":"Feature","properties":{"source_id":"osm:node/2052404235","source_name":"OpenStreetMap / OpenSeaMap via QLever","source_version":"qlever-osm-planet-query-2026-09-16","poi_type":"marina","categories":["marina"],"name":"Marina","confidence":"MEDIUM","classification_rule":"leisure=marina or marina harbour category","tags":{"leisure":"marina","name":"Marina"}},"geometry":{"type":"Point","coordinates":[27.346903,37.020201]}},{"type":"Feature","properties":{"source_id":"osm:node/2422073264","source_name":"OpenStreetMap / OpenSeaMap via QLever","source_version":"qlever-osm-planet-query-2026-09-16","poi_type":"marina","categories":["marina"],"name":"Unnamed marine facility","confidence":"MEDIUM","classification_rule":"leisure=marina or marina harbour category","tags":{"leisure":"marina"}},"geometry":{"type":"Point","coordinates":[27.794017,37.005023]}},{"type":"Feature","properties":{"source_id":"osm:node/2422073265","source_name":"OpenStreetMap / OpenSeaMap via QLever","source_version":"qlever-osm-planet-query-2026-09-16","poi_type":"marina","categories":["marina"],"name":"Unnamed marine facility","confidence":"MEDIUM","classification_rule":"leisure=marina or marina harbour category","tags":{"leisure":"marina"}},"geometry":{"type":"Point","coordinates":[27.79319,37.005297]}},{"type":"Feature","properties":{"source_id":"osm:node/2422073269","source_name":"OpenStreetMap / OpenSeaMap via QLever","source_version":"qlever-osm-planet-query-2026-09-16","poi_type":"marina","categories":["marina"],"name":"Unnamed marine facility","confidence":"MEDIUM","classification_rule":"leisure=marina or marina harbour category","tags":{"leisure":"marina"}},"geometry":{"type":"Point","coordinates":[27.791485,37.00528]}},{"type":"Feature","properties":{"source_id":"osm:node/2422073270","source_name":"OpenStreetMap / OpenSeaMap via QLever","source_version":"qlever-osm-planet-query-2026-09-16","poi_type":"marina","categories":["marina"],"name":"Unnamed marine facility","confidence":"MEDIUM","classification_rule":"leisure=marina or marina harbour category","tags":{"leisure":"marina"}},"geometry":{"type":"Point","coordinates":[27.792139,37.005331]}},{"type":"Feature","properties":{"source_id":"osm:node/2422088590","source_name":"OpenStreetMap / OpenSeaMap via QLever","source_version":"qlever-osm-planet-query-2026-09-16","poi_type":"fuel_dock","categories":["fuel_dock"],"name":"Unnamed marine facility","confidence":"MEDIUM","classification_rule":"marine fuel tag","tags":{"seamark:small_craft_facility:category":"fuel_station","seamark:type":"small_craft_facility"}},"geometry":{"type":"Point","coordinates":[27.424633,37.032568]}},{"type":"Feature","properties":{"source_id":"osm:node/2536518677","source_name":"OpenStreetMap / OpenSeaMap via QLever","source_version":"qlever-osm-planet-query-2026-09-16","poi_type":"marina","categories":["marina","harbour"],"name":"Leros Marina","confidence":"MEDIUM","classification_rule":"leisure=marina or marina harbour category","tags":{"leisure":"marina","name":"Leros Marina","seamark:type":"harbour","seamark:harbour:category":"marina"}},"geometry":{"type":"Point","coordinates":[26.858068,37.129305]}},{"type":"Feature","properties":{"source_id":"osm:node/4219292365","source_name":"OpenStreetMap / OpenSeaMap via QLever","source_version":"qlever-osm-planet-query-2026-09-16","poi_type":"marina","categories":["marina","harbour"],"name":"\u0393\u03c5\u03b1\u03bb\u03cc\u03c2","confidence":"MEDIUM","classification_rule":"leisure=marina or marina harbour category","tags":{"leisure":"marina","name":"\u0393\u03c5\u03b1\u03bb\u03cc\u03c2","seamark:type":"harbour","seamark:harbour:category":"marina"}},"geometry":{"type":"Point","coordinates":[27.83681,36.61601]}},{"type":"Feature","properties":{"source_id":"osm:node/442771452","source_name":"OpenStreetMap / OpenSeaMap via QLever","source_version":"qlever-osm-planet-query-2026-09-16","poi_type":"marina","categories":["marina","harbour"],"name":"Porto Bello Marina","confidence":"MEDIUM","classification_rule":"leisure=marina or marina harbour category","tags":{"leisure":"marina","name":"Porto Bello Marina","seamark:type":"harbour","seamark:harbour:category":"marina"}},"geometry":{"type":"Point","coordinates":[27.118819,36.762399]}},{"type":"Feature","properties":{"source_id":"osm:node/494253391","source_name":"OpenStreetMap / OpenSeaMap via QLever","source_version":"qlever-osm-planet-query-2026-09-16","poi_type":"marina","categories":["marina","harbour"],"name":"Unnamed marine facility","confidence":"MEDIUM","classification_rule":"leisure=marina or marina harbour category","tags":{"leisure":"marina","seamark:type":"harbour","seamark:harbour:category":"marina"}},"geometry":{"type":"Point","coordinates":[26.929614,36.988822]}},{"type":"Feature","properties":{"source_id":"osm:node/497504262","source_name":"OpenStreetMap / OpenSeaMap via QLever","source_version":"qlever-osm-planet-query-2026-09-16","poi_type":"fuel_dock","categories":["fuel_dock"],"name":"Unnamed marine facility","confidence":"MEDIUM","classification_rule":"marine fuel tag","tags":{"waterway":"fuel","seamark:type":"small_craft_facility","seamark:small_craft_facility:category":"fuel_station"}},"geometry":{"type":"Point","coordinates":[27.303965,36.890279]}},{"type":"Feature","properties":{"source_id":"osm:node/497586489","source_name":"OpenStreetMap / OpenSeaMap via QLever","source_version":"qlever-osm-planet-query-2026-09-16","poi_type":"marina","categories":["marina"],"name":"Palamutb\u00fck\u00fc Liman","confidence":"MEDIUM","classification_rule":"leisure=marina or marina harbour category","tags":{"leisure":"marina","name":"Palamutb\u00fck\u00fc Liman"}},"geometry":{"type":"Point","coordinates":[27.503082,36.669077]}},{"type":"Feature","properties":{"source_id":"osm:node/497588058","source_name":"OpenStreetMap / OpenSeaMap via QLever","source_version":"qlever-osm-planet-query-2026-09-16","poi_type":"marina","categories":["marina"],"name":"Paloi Marina","confidence":"MEDIUM","classification_rule":"leisure=marina or marina harbour category","tags":{"leisure":"marina","name":"Paloi Marina"}},"geometry":{"type":"Point","coordinates":[27.170714,36.619315]}},{"type":"Feature","properties":{"source_id":"osm:node/4997568976","source_name":"OpenStreetMap / OpenSeaMap via QLever","source_version":"qlever-osm-planet-query-2026-09-16","poi_type":"marina","categories":["marina","harbour"],"name":"Bodrum Yachting","confidence":"MEDIUM","classification_rule":"leisure=marina or marina harbour category","tags":{"leisure":"marina","name":"Bodrum Yachting","seamark:type":"harbour","seamark:harbour:category":"marina_no_facilities"}},"geometry":{"type":"Point","coordinates":[27.427902,37.03391]}},{"type":"Feature","properties":{"source_id":"osm:node/550020387","source_name":"OpenStreetMap / OpenSeaMap via QLever","source_version":"qlever-osm-planet-query-2026-09-16","poi_type":"marina","categories":["marina","harbour"],"name":"Unnamed marine facility","confidence":"MEDIUM","classification_rule":"leisure=marina or marina harbour category","tags":{"leisure":"marina","seamark:type":"harbour","seamark:harbour:category":"marina"}},"geometry":{"type":"Point","coordinates":[26.98642,36.949421]}},{"type":"Feature","properties":{"source_id":"osm:node/5757899923","source_name":"OpenStreetMap / OpenSeaMap via QLever","source_version":"qlever-osm-planet-query-2026-09-16","poi_type":"marina","categories":["marina"],"name":"Dat\u00e7a Liman\u0131","confidence":"MEDIUM","classification_rule":"leisure=marina or marina harbour category","tags":{"leisure":"marina","name":"Dat\u00e7a Liman\u0131"}},"geometry":{"type":"Point","coordinates":[27.689992,36.722653]}},{"type":"Feature","properties":{"source_id":"osm:way/1443767228","source_name":"OpenStreetMap / OpenSeaMap via QLever","source_version":"qlever-osm-planet-query-2026-09-16","poi_type":"marina","categories":["marina","harbour"],"name":"\u039b\u03b9\u03bc\u03ac\u03bd\u03b9 \u039c\u03b1\u03c3\u03c4\u03b9\u03c7\u03b1\u03c1\u03af\u03bf\u03c5","confidence":"MEDIUM","classification_rule":"leisure=marina or marina harbour category","tags":{"leisure":"marina","name":"\u039b\u03b9\u03bc\u03ac\u03bd\u03b9 \u039c\u03b1\u03c3\u03c4\u03b9\u03c7\u03b1\u03c1\u03af\u03bf\u03c5","seamark:type":"harbour","seamark:harbour:category":"marina"}},"geometry":{"type":"Point","coordinates":[27.076513363648946,36.85141706901822]}},{"type":"Feature","properties":{"source_id":"osm:way/1474280309","source_name":"OpenStreetMap / OpenSeaMap via QLever","source_version":"qlever-osm-planet-query-2026-09-16","poi_type":"marina","categories":["marina","harbour"],"name":"Kairos Marina","confidence":"MEDIUM","classification_rule":"leisure=marina or marina harbour category","tags":{"leisure":"marina","name":"Kairos Marina","seamark:type":"harbour","seamark:harbour:category":"marina"}},"geometry":{"type":"Point","coordinates":[27.61712551957148,36.76985614025315]}},{"type":"Feature","properties":{"source_id":"osm:way/1529194058","source_name":"OpenStreetMap / OpenSeaMap via QLever","source_version":"qlever-osm-planet-query-2026-09-16","poi_type":"marina","categories":["marina","harbour"],"name":"Egesu G\u00fcll\u00fck Marina","confidence":"MEDIUM","classification_rule":"leisure=marina or marina harbour category","tags":{"leisure":"marina","name":"Egesu G\u00fcll\u00fck Marina","seamark:type":"harbour","seamark:harbour:category":"marina"}},"geometry":{"type":"Point","coordinates":[27.587466021073528,37.2289494216722]}},{"type":"Feature","properties":{"source_id":"osm:way/163314859","source_name":"OpenStreetMap / OpenSeaMap via QLever","source_version":"qlever-osm-planet-query-2026-09-16","poi_type":"marina","categories":["marina","harbour"],"name":"Yal\u0131kavak Marina","confidence":"MEDIUM","classification_rule":"leisure=marina or marina harbour category","tags":{"leisure":"marina","name":"Yal\u0131kavak Marina","seamark:type":"harbour","seamark:harbour:category":"marina"}},"geometry":{"type":"Point","coordinates":[27.2849423482621,37.105013324490876]}},{"type":"Feature","properties":{"source_id":"osm:way/223043558","source_name":"OpenStreetMap / OpenSeaMap via QLever","source_version":"qlever-osm-planet-query-2026-09-16","poi_type":"marina","categories":["marina","harbour"],"name":"D-Marin Turgutreis","confidence":"MEDIUM","classification_rule":"leisure=marina or marina harbour category","tags":{"leisure":"marina","name":"D-Marin Turgutreis","seamark:type":"harbour","seamark:harbour:category":"marina"}},"geometry":{"type":"Point","coordinates":[27.2565674060926,37.00183274436264]}},{"type":"Feature","properties":{"source_id":"osm:way/366022280","source_name":"OpenStreetMap / OpenSeaMap via QLever","source_version":"qlever-osm-planet-query-2026-09-16","poi_type":"marina","categories":["marina","harbour"],"name":"\u039b\u03b9\u03bc\u03ac\u03bd\u03b9 \u039a\u03c9","confidence":"MEDIUM","classification_rule":"leisure=marina or marina harbour category","tags":{"leisure":"marina","name":"\u039b\u03b9\u03bc\u03ac\u03bd\u03b9 \u039a\u03c9","seamark:type":"harbour","seamark:harbour:category":"marina"}},"geometry":{"type":"Point","coordinates":[27.288086875904295,36.895844440122765]}},{"type":"Feature","properties":{"source_id":"osm:way/410960043","source_name":"OpenStreetMap / OpenSeaMap via QLever","source_version":"qlever-osm-planet-query-2026-09-16","poi_type":"marina","categories":["marina"],"name":"Plus Watersports","confidence":"MEDIUM","classification_rule":"leisure=marina or marina harbour category","tags":{"leisure":"marina","name":"Plus Watersports"}},"geometry":{"type":"Point","coordinates":[27.395941540692267,37.028869105493285]}},{"type":"Feature","properties":{"source_id":"osm:way/410960046","source_name":"OpenStreetMap / OpenSeaMap via QLever","source_version":"qlever-osm-planet-query-2026-09-16","poi_type":"marina","categories":["marina"],"name":"Unnamed marine facility","confidence":"MEDIUM","classification_rule":"leisure=marina or marina harbour category","tags":{"leisure":"marina"}},"geometry":{"type":"Point","coordinates":[27.395603333686385,37.02716108843028]}},{"type":"Feature","properties":{"source_id":"osm:way/439886578","source_name":"OpenStreetMap / OpenSeaMap via QLever","source_version":"qlever-osm-planet-query-2026-09-16","poi_type":"marina","categories":["marina","harbour"],"name":"Kos Marina","confidence":"MEDIUM","classification_rule":"leisure=marina or marina harbour category","tags":{"leisure":"marina","name":"Kos Marina","seamark:type":"harbour","seamark:harbour:category":"marina"}},"geometry":{"type":"Point","coordinates":[27.302301534007213,36.89178998727175]}},{"type":"Feature","properties":{"source_id":"osm:way/503660152","source_name":"OpenStreetMap / OpenSeaMap via QLever","source_version":"qlever-osm-planet-query-2026-09-16","poi_type":"harbour","categories":["harbour"],"name":"Bodrum Liman\u0131","confidence":"LOW","classification_rule":"seamark:type=harbour","tags":{"seamark:type":"harbour","name":"Bodrum Liman\u0131"}},"geometry":{"type":"Point","coordinates":[27.426931857196013,37.03390652393666]}},{"type":"Feature","properties":{"source_id":"osm:way/503660939","source_name":"OpenStreetMap / OpenSeaMap via QLever","source_version":"qlever-osm-planet-query-2026-09-16","poi_type":"marina","categories":["marina","harbour"],"name":"Milta Bodrum Marina","confidence":"MEDIUM","classification_rule":"leisure=marina or marina harbour category","tags":{"leisure":"marina","name":"Milta Bodrum Marina","seamark:type":"harbour","seamark:harbour:category":"marina"}},"geometry":{"type":"Point","coordinates":[27.424090862535945,37.033991505288384]}},{"type":"Feature","properties":{"source_id":"osm:way/503660942","source_name":"OpenStreetMap / OpenSeaMap via QLever","source_version":"qlever-osm-planet-query-2026-09-16","poi_type":"marina","categories":["marina","harbour"],"name":"Milta Bodrum Marina","confidence":"MEDIUM","classification_rule":"leisure=marina or marina harbour category","tags":{"leisure":"marina","name":"Milta Bodrum Marina","seamark:type":"harbour"}},"geometry":{"type":"Point","coordinates":[27.4248877,37.0321323]}},{"type":"Feature","properties":{"source_id":"osm:way/647322837","source_name":"OpenStreetMap / OpenSeaMap via QLever","source_version":"qlever-osm-planet-query-2026-09-16","poi_type":"marina","categories":["marina","harbour"],"name":"\u0130asos Yat Liman\u0131","confidence":"MEDIUM","classification_rule":"leisure=marina or marina harbour category","tags":{"leisure":"marina","name":"\u0130asos Yat Liman\u0131","seamark:type":"harbour","seamark:harbour:category":"marina"}},"geometry":{"type":"Point","coordinates":[27.534410512073357,37.24934689118251]}}]}