{"type":"FeatureCollection","features":[{"type":"Feature","properties":{"source_id":"osm:node/4941136090","source_name":"OpenStreetMap / OpenSeaMap seamark tags","source_version":"osm-snapshot-2026-09-13","feature_type":"rock","restriction_class":"HARD_NO_GO","classification_rule":"seamark:type=rock is a physical hazard","tags":{"seamark:rock:water_level":"submerged","seamark:type":"rock"}},"geometry":{"type":"Point","coordinates":[27.1269849,36.6053201]}},{"type":"Feature","properties":{"source_id":"osm:node/4941136091","source_name":"OpenStreetMap / OpenSeaMap seamark tags","source_version":"osm-snapshot-2026-09-13","feature_type":"rock","restriction_class":"HARD_NO_GO","classification_rule":"seamark:type=rock is a physical hazard","tags":{"seamark:rock:water_level":"submerged","seamark:type":"rock"}},"geometry":{"type":"Point","coordinates":[27.1258745,36.6059747]}},{"type":"Feature","properties":{"source_id":"osm:node/4941136092","source_name":"OpenStreetMap / OpenSeaMap seamark tags","source_version":"osm-snapshot-2026-09-13","feature_type":"rock","restriction_class":"HARD_NO_GO","classification_rule":"seamark:type=rock is a physical hazard","tags":{"seamark:rock:water_level":"covers","seamark:type":"rock"}},"geometry":{"type":"Point","coordinates":[27.1300372,36.6104983]}},{"type":"Feature","properties":{"source_id":"osm:node/4941136093","source_name":"OpenStreetMap / OpenSeaMap seamark tags","source_version":"osm-snapshot-2026-09-13","feature_type":"rock","restriction_class":"HARD_NO_GO","classification_rule":"seamark:type=rock is a physical hazard","tags":{"seamark:rock:water_level":"awash","seamark:type":"rock"}},"geometry":{"type":"Point","coordinates":[27.1275696,36.6081235]}},{"type":"Feature","properties":{"source_id":"osm:node/4941136094","source_name":"OpenStreetMap / OpenSeaMap seamark tags","source_version":"osm-snapshot-2026-09-13","feature_type":"rock","restriction_class":"HARD_NO_GO","classification_rule":"seamark:type=rock is a physical hazard","tags":{"seamark:rock:water_level":"awash","seamark:type":"rock"}},"geometry":{"type":"Point","coordinates":[27.1269286,36.6077144]}},{"type":"Feature","properties":{"source_id":"osm:node/4941136095","source_name":"OpenStreetMap / OpenSeaMap seamark tags","source_version":"osm-snapshot-2026-09-13","feature_type":"rock","restriction_class":"HARD_NO_GO","classification_rule":"seamark:type=rock is a physical hazard","tags":{"seamark:rock:water_level":"awash","seamark:type":"rock"}},"geometry":{"type":"Point","coordinates":[27.1289778,36.6085692]}},{"type":"Feature","properties":{"source_id":"osm:node/4941136096","source_name":"OpenStreetMap / OpenSeaMap seamark tags","source_version":"osm-snapshot-2026-09-13","feature_type":"rock","restriction_class":"HARD_NO_GO","classification_rule":"seamark:type=rock is a physical hazard","tags":{"seamark:rock:water_level":"awash","seamark:type":"rock"}},"geometry":{"type":"Point","coordinates":[27.1267489,36.6058584]}},{"type":"Feature","properties":{"source_id":"osm:node/4941136097","source_name":"OpenStreetMap / OpenSeaMap seamark tags","source_version":"osm-snapshot-2026-09-13","feature_type":"rock","restriction_class":"HARD_NO_GO","classification_rule":"seamark:type=rock is a physical hazard","tags":{"seamark:rock:water_level":"awash","seamark:type":"rock"}},"geometry":{"type":"Point","coordinates":[27.127007,36.6043582]}},{"type":"Feature","properties":{"source_id":"osm:node/4941136098","source_name":"OpenStreetMap / OpenSeaMap seamark tags","source_version":"osm-snapshot-2026-09-13","feature_type":"rock","restriction_class":"HARD_NO_GO","classification_rule":"seamark:type=rock is a physical hazard","tags":{"seamark:rock:water_level":"covers","seamark:type":"rock"}},"geometry":{"type":"Point","coordinates":[27.126773,36.60619]}},{"type":"Feature","properties":{"source_id":"osm:node/4941136099","source_name":"OpenStreetMap / OpenSeaMap seamark tags","source_version":"osm-snapshot-2026-09-13","feature_type":"rock","restriction_class":"HARD_NO_GO","classification_rule":"seamark:type=rock is a physical hazard","tags":{"seamark:rock:water_level":"covers","seamark:type":"rock"}},"geometry":{"type":"Point","coordinates":[27.1269768,36.6064419]}},{"type":"Feature","properties":{"source_id":"osm:node/4941136217","source_name":"OpenStreetMap / OpenSeaMap seamark tags","source_version":"osm-snapshot-2026-09-13","feature_type":"rock","restriction_class":"HARD_NO_GO","classification_rule":"seamark:type=rock is a physical hazard","tags":{"seamark:rock:water_level":"awash","seamark:type":"rock"}},"geometry":{"type":"Point","coordinates":[27.1327087,36.6129743]}},{"type":"Feature","properties":{"source_id":"osm:node/4947017531","source_name":"OpenStreetMap / OpenSeaMap seamark tags","source_version":"osm-snapshot-2026-09-13","feature_type":"rock","restriction_class":"HARD_NO_GO","classification_rule":"seamark:type=rock is a physical hazard","tags":{"height":"10","leaf_type":"broadleaved","natural":"tree","seamark:rock:water_level":"awash","seamark:type":"rock"}},"geometry":{"type":"Point","coordinates":[27.1600565,36.6125501]}},{"type":"Feature","properties":{"source_id":"osm:node/4980859771","source_name":"OpenStreetMap / OpenSeaMap seamark tags","source_version":"osm-snapshot-2026-09-13","feature_type":"rock","restriction_class":"HARD_NO_GO","classification_rule":"seamark:type=rock is a physical hazard","tags":{"seamark:rock:water_level":"submerged","seamark:type":"rock"}},"geometry":{"type":"Point","coordinates":[27.1490139,36.6132455]}},{"type":"Feature","properties":{"source_id":"osm:node/4980859772","source_name":"OpenStreetMap / OpenSeaMap seamark tags","source_version":"osm-snapshot-2026-09-13","feature_type":"rock","restriction_class":"HARD_NO_GO","classification_rule":"seamark:type=rock is a physical hazard","tags":{"seamark:rock:water_level":"submerged","seamark:type":"rock"}},"geometry":{"type":"Point","coordinates":[27.1482468,36.613069]}},{"type":"Feature","properties":{"source_id":"osm:node/4980863367","source_name":"OpenStreetMap / OpenSeaMap seamark tags","source_version":"osm-snapshot-2026-09-13","feature_type":"rock","restriction_class":"HARD_NO_GO","classification_rule":"seamark:type=rock is a physical hazard","tags":{"seamark:rock:water_level":"submerged","seamark:type":"rock"}},"geometry":{"type":"Point","coordinates":[27.1687496,36.6213661]}},{"type":"Feature","properties":{"source_id":"osm:node/4980863368","source_name":"OpenStreetMap / OpenSeaMap seamark tags","source_version":"osm-snapshot-2026-09-13","feature_type":"rock","restriction_class":"HARD_NO_GO","classification_rule":"seamark:type=rock is a physical hazard","tags":{"seamark:rock:water_level":"submerged","seamark:type":"rock"}},"geometry":{"type":"Point","coordinates":[27.1684009,36.6213833]}},{"type":"Feature","properties":{"source_id":"osm:node/5932389879","source_name":"OpenStreetMap / OpenSeaMap seamark tags","source_version":"osm-snapshot-2026-09-13","feature_type":"rock","restriction_class":"HARD_NO_GO","classification_rule":"seamark:type=rock is a physical hazard","tags":{"seamark:rock:water_level":"submerged","seamark:type":"rock"}},"geometry":{"type":"Point","coordinates":[27.1129864,36.6379489]}},{"type":"Feature","properties":{"source_id":"osm:node/5932389880","source_name":"OpenStreetMap / OpenSeaMap seamark tags","source_version":"osm-snapshot-2026-09-13","feature_type":"rock","restriction_class":"HARD_NO_GO","classification_rule":"seamark:type=rock is a physical hazard","tags":{"seamark:rock:water_level":"submerged","seamark:type":"rock"}},"geometry":{"type":"Point","coordinates":[27.1339855,36.66504]}},{"type":"Feature","properties":{"source_id":"osm:node/5932389881","source_name":"OpenStreetMap / OpenSeaMap seamark tags","source_version":"osm-snapshot-2026-09-13","feature_type":"rock","restriction_class":"HARD_NO_GO","classification_rule":"seamark:type=rock is a physical hazard","tags":{"seamark:rock:water_level":"submerged","seamark:type":"rock"}},"geometry":{"type":"Point","coordinates":[27.1361768,36.6652735]}},{"type":"Feature","properties":{"source_id":"osm:node/5932389882","source_name":"OpenStreetMap / OpenSeaMap seamark tags","source_version":"osm-snapshot-2026-09-13","feature_type":"rock","restriction_class":"HARD_NO_GO","classification_rule":"seamark:type=rock is a physical hazard","tags":{"seamark:rock:water_level":"submerged","seamark:type":"rock"}},"geometry":{"type":"Point","coordinates":[27.135576,36.666332]}},{"type":"Feature","properties":{"source_id":"osm:node/5932389883","source_name":"OpenStreetMap / OpenSeaMap seamark tags","source_version":"osm-snapshot-2026-09-13","feature_type":"rock","restriction_class":"HARD_NO_GO","classification_rule":"seamark:type=rock is a physical hazard","tags":{"seamark:rock:water_level":"submerged","seamark:type":"rock"}},"geometry":{"type":"Point","coordinates":[27.1198381,36.6556487]}},{"type":"Feature","properties":{"source_id":"osm:node/5932389884","source_name":"OpenStreetMap / OpenSeaMap seamark tags","source_version":"osm-snapshot-2026-09-13","feature_type":"rock","restriction_class":"HARD_NO_GO","classification_rule":"seamark:type=rock is a physical hazard","tags":{"seamark:rock:water_level":"submerged","seamark:type":"rock"}},"geometry":{"type":"Point","coordinates":[27.1198529,36.6589414]}},{"type":"Feature","properties":{"source_id":"osm:node/5932389885","source_name":"OpenStreetMap / OpenSeaMap seamark tags","source_version":"osm-snapshot-2026-09-13","feature_type":"rock","restriction_class":"HARD_NO_GO","classification_rule":"seamark:type=rock is a physical hazard","tags":{"seamark:rock:water_level":"covers","seamark:type":"rock"}},"geometry":{"type":"Point","coordinates":[27.1156988,36.6484184]}},{"type":"Feature","properties":{"source_id":"osm:node/5932389886","source_name":"OpenStreetMap / OpenSeaMap seamark tags","source_version":"osm-snapshot-2026-09-13","feature_type":"rock","restriction_class":"HARD_NO_GO","classification_rule":"seamark:type=rock is a physical hazard","tags":{"seamark:rock:water_level":"submerged","seamark:type":"rock"}},"geometry":{"type":"Point","coordinates":[27.1155305,36.6495197]}},{"type":"Feature","properties":{"source_id":"osm:node/5932389887","source_name":"OpenStreetMap / OpenSeaMap seamark tags","source_version":"osm-snapshot-2026-09-13","feature_type":"rock","restriction_class":"HARD_NO_GO","classification_rule":"seamark:type=rock is a physical hazard","tags":{"seamark:rock:water_level":"submerged","seamark:type":"rock"}},"geometry":{"type":"Point","coordinates":[27.11659,36.6526313]}},{"type":"Feature","properties":{"source_id":"osm:node/5932389888","source_name":"OpenStreetMap / OpenSeaMap seamark tags","source_version":"osm-snapshot-2026-09-13","feature_type":"rock","restriction_class":"HARD_NO_GO","classification_rule":"seamark:type=rock is a physical hazard","tags":{"seamark:rock:water_level":"submerged","seamark:type":"rock"}},"geometry":{"type":"Point","coordinates":[27.1169494,36.6529541]}},{"type":"Feature","properties":{"source_id":"osm:node/5932389889","source_name":"OpenStreetMap / OpenSeaMap seamark tags","source_version":"osm-snapshot-2026-09-13","feature_type":"rock","restriction_class":"HARD_NO_GO","classification_rule":"seamark:type=rock is a physical hazard","tags":{"seamark:rock:water_level":"submerged","seamark:type":"rock"}},"geometry":{"type":"Point","coordinates":[27.1174832,36.6525571]}},{"type":"Feature","properties":{"source_id":"osm:node/5932389890","source_name":"OpenStreetMap / OpenSeaMap seamark tags","source_version":"osm-snapshot-2026-09-13","feature_type":"rock","restriction_class":"HARD_NO_GO","classification_rule":"seamark:type=rock is a physical hazard","tags":{"seamark:rock:water_level":"submerged","seamark:type":"rock"}},"geometry":{"type":"Point","coordinates":[27.1161729,36.6522902]}},{"type":"Feature","properties":{"source_id":"osm:node/5932389891","source_name":"OpenStreetMap / OpenSeaMap seamark tags","source_version":"osm-snapshot-2026-09-13","feature_type":"rock","restriction_class":"HARD_NO_GO","classification_rule":"seamark:type=rock is a physical hazard","tags":{"seamark:rock:water_level":"covers","seamark:type":"rock"}},"geometry":{"type":"Point","coordinates":[27.1159691,36.6464262]}},{"type":"Feature","properties":{"source_id":"osm:node/5932389892","source_name":"OpenStreetMap / OpenSeaMap seamark tags","source_version":"osm-snapshot-2026-09-13","feature_type":"rock","restriction_class":"HARD_NO_GO","classification_rule":"seamark:type=rock is a physical hazard","tags":{"seamark:rock:water_level":"covers","seamark:type":"rock"}},"geometry":{"type":"Point","coordinates":[27.125566,36.675372]}},{"type":"Feature","properties":{"source_id":"osm:node/5932389893","source_name":"OpenStreetMap / OpenSeaMap seamark tags","source_version":"osm-snapshot-2026-09-13","feature_type":"rock","restriction_class":"HARD_NO_GO","classification_rule":"seamark:type=rock is a physical hazard","tags":{"seamark:rock:water_level":"awash","seamark:type":"rock"}},"geometry":{"type":"Point","coordinates":[27.1276045,36.6765078]}},{"type":"Feature","properties":{"source_id":"osm:node/5932389894","source_name":"OpenStreetMap / OpenSeaMap seamark tags","source_version":"osm-snapshot-2026-09-13","feature_type":"rock","restriction_class":"HARD_NO_GO","classification_rule":"seamark:type=rock is a physical hazard","tags":{"seamark:rock:water_level":"awash","seamark:type":"rock"}},"geometry":{"type":"Point","coordinates":[27.1309733,36.6815845]}},{"type":"Feature","properties":{"source_id":"osm:node/5932389895","source_name":"OpenStreetMap / OpenSeaMap seamark tags","source_version":"osm-snapshot-2026-09-13","feature_type":"rock","restriction_class":"HARD_NO_GO","classification_rule":"seamark:type=rock is a physical hazard","tags":{"seamark:rock:water_level":"awash","seamark:type":"rock"}},"geometry":{"type":"Point","coordinates":[27.1293908,36.6800314]}},{"type":"Feature","properties":{"source_id":"osm:node/5932389896","source_name":"OpenStreetMap / OpenSeaMap seamark tags","source_version":"osm-snapshot-2026-09-13","feature_type":"rock","restriction_class":"HARD_NO_GO","classification_rule":"seamark:type=rock is a physical hazard","tags":{"seamark:rock:water_level":"awash","seamark:type":"rock"}},"geometry":{"type":"Point","coordinates":[27.1247291,36.6759915]}},{"type":"Feature","properties":{"source_id":"osm:node/5932389897","source_name":"OpenStreetMap / OpenSeaMap seamark tags","source_version":"osm-snapshot-2026-09-13","feature_type":"rock","restriction_class":"HARD_NO_GO","classification_rule":"seamark:type=rock is a physical hazard","tags":{"seamark:rock:water_level":"awash","seamark:type":"rock"}},"geometry":{"type":"Point","coordinates":[27.1249866,36.6765422]}},{"type":"Feature","properties":{"source_id":"osm:node/5932389911","source_name":"OpenStreetMap / OpenSeaMap seamark tags","source_version":"osm-snapshot-2026-09-13","feature_type":"rock","restriction_class":"HARD_NO_GO","classification_rule":"seamark:type=rock is a physical hazard","tags":{"seamark:rock:water_level":"submerged","seamark:type":"rock"}},"geometry":{"type":"Point","coordinates":[27.1211846,36.6524581]}},{"type":"Feature","properties":{"source_id":"osm:node/5932389912","source_name":"OpenStreetMap / OpenSeaMap seamark tags","source_version":"osm-snapshot-2026-09-13","feature_type":"rock","restriction_class":"HARD_NO_GO","classification_rule":"seamark:type=rock is a physical hazard","tags":{"seamark:rock:water_level":"awash","seamark:type":"rock"}},"geometry":{"type":"Point","coordinates":[27.1215018,36.6524931]}},{"type":"Feature","properties":{"source_id":"osm:node/5932389925","source_name":"OpenStreetMap / OpenSeaMap seamark tags","source_version":"osm-snapshot-2026-09-13","feature_type":"rock","restriction_class":"HARD_NO_GO","classification_rule":"seamark:type=rock is a physical hazard","tags":{"seamark:rock:water_level":"awash","seamark:type":"rock"}},"geometry":{"type":"Point","coordinates":[27.139602,36.6571598]}},{"type":"Feature","properties":{"source_id":"osm:node/5932389926","source_name":"OpenStreetMap / OpenSeaMap seamark tags","source_version":"osm-snapshot-2026-09-13","feature_type":"rock","restriction_class":"HARD_NO_GO","classification_rule":"seamark:type=rock is a physical hazard","tags":{"seamark:rock:water_level":"awash","seamark:type":"rock"}},"geometry":{"type":"Point","coordinates":[27.1394947,36.6570887]}},{"type":"Feature","properties":{"source_id":"osm:node/5932389927","source_name":"OpenStreetMap / OpenSeaMap seamark tags","source_version":"osm-snapshot-2026-09-13","feature_type":"rock","restriction_class":"HARD_NO_GO","classification_rule":"seamark:type=rock is a physical hazard","tags":{"seamark:rock:water_level":"awash","seamark:type":"rock"}},"geometry":{"type":"Point","coordinates":[27.139138,36.6572673]}},{"type":"Feature","properties":{"source_id":"osm:node/5932389928","source_name":"OpenStreetMap / OpenSeaMap seamark tags","source_version":"osm-snapshot-2026-09-13","feature_type":"rock","restriction_class":"HARD_NO_GO","classification_rule":"seamark:type=rock is a physical hazard","tags":{"seamark:rock:water_level":"awash","seamark:type":"rock"}},"geometry":{"type":"Point","coordinates":[27.1188122,36.668264]}},{"type":"Feature","properties":{"source_id":"osm:node/5932389929","source_name":"OpenStreetMap / OpenSeaMap seamark tags","source_version":"osm-snapshot-2026-09-13","feature_type":"rock","restriction_class":"HARD_NO_GO","classification_rule":"seamark:type=rock is a physical hazard","tags":{"seamark:rock:water_level":"awash","seamark:type":"rock"}},"geometry":{"type":"Point","coordinates":[27.1065384,36.6683802]}},{"type":"Feature","properties":{"source_id":"osm:node/5932389930","source_name":"OpenStreetMap / OpenSeaMap seamark tags","source_version":"osm-snapshot-2026-09-13","feature_type":"rock","restriction_class":"HARD_NO_GO","classification_rule":"seamark:type=rock is a physical hazard","tags":{"seamark:rock:water_level":"awash","seamark:type":"rock"}},"geometry":{"type":"Point","coordinates":[27.1072411,36.668548]}},{"type":"Feature","properties":{"source_id":"osm:node/5932389931","source_name":"OpenStreetMap / OpenSeaMap seamark tags","source_version":"osm-snapshot-2026-09-13","feature_type":"rock","restriction_class":"HARD_NO_GO","classification_rule":"seamark:type=rock is a physical hazard","tags":{"seamark:rock:water_level":"awash","seamark:type":"rock"}},"geometry":{"type":"Point","coordinates":[27.108137,36.668462]}},{"type":"Feature","properties":{"source_id":"osm:node/5932389932","source_name":"OpenStreetMap / OpenSeaMap seamark tags","source_version":"osm-snapshot-2026-09-13","feature_type":"rock","restriction_class":"HARD_NO_GO","classification_rule":"seamark:type=rock is a physical hazard","tags":{"seamark:rock:water_level":"awash","seamark:type":"rock"}},"geometry":{"type":"Point","coordinates":[27.1035665,36.6610349]}},{"type":"Feature","properties":{"source_id":"osm:node/5932389933","source_name":"OpenStreetMap / OpenSeaMap seamark tags","source_version":"osm-snapshot-2026-09-13","feature_type":"rock","restriction_class":"HARD_NO_GO","classification_rule":"seamark:type=rock is a physical hazard","tags":{"seamark:rock:water_level":"awash","seamark:type":"rock"}},"geometry":{"type":"Point","coordinates":[27.1030408,36.660114]}},{"type":"Feature","properties":{"source_id":"osm:node/5932389934","source_name":"OpenStreetMap / OpenSeaMap seamark tags","source_version":"osm-snapshot-2026-09-13","feature_type":"rock","restriction_class":"HARD_NO_GO","classification_rule":"seamark:type=rock is a physical hazard","tags":{"seamark:rock:water_level":"awash","seamark:type":"rock"}},"geometry":{"type":"Point","coordinates":[27.1037704,36.6550833]}},{"type":"Feature","properties":{"source_id":"osm:node/5932389935","source_name":"OpenStreetMap / OpenSeaMap seamark tags","source_version":"osm-snapshot-2026-09-13","feature_type":"rock","restriction_class":"HARD_NO_GO","classification_rule":"seamark:type=rock is a physical hazard","tags":{"seamark:rock:water_level":"awash","seamark:type":"rock"}},"geometry":{"type":"Point","coordinates":[27.1040493,36.6537449]}},{"type":"Feature","properties":{"source_id":"osm:node/5932389936","source_name":"OpenStreetMap / OpenSeaMap seamark tags","source_version":"osm-snapshot-2026-09-13","feature_type":"rock","restriction_class":"HARD_NO_GO","classification_rule":"seamark:type=rock is a physical hazard","tags":{"seamark:rock:water_level":"awash","seamark:type":"rock"}},"geometry":{"type":"Point","coordinates":[27.1058518,36.6513176]}},{"type":"Feature","properties":{"source_id":"osm:node/5932389940","source_name":"OpenStreetMap / OpenSeaMap seamark tags","source_version":"osm-snapshot-2026-09-13","feature_type":"rock","restriction_class":"HARD_NO_GO","classification_rule":"seamark:type=rock is a physical hazard","tags":{"seamark:rock:water_level":"covers","seamark:type":"rock"}},"geometry":{"type":"Point","coordinates":[27.1110713,36.645701]}},{"type":"Feature","properties":{"source_id":"osm:node/5932389941","source_name":"OpenStreetMap / OpenSeaMap seamark tags","source_version":"osm-snapshot-2026-09-13","feature_type":"rock","restriction_class":"HARD_NO_GO","classification_rule":"seamark:type=rock is a physical hazard","tags":{"seamark:rock:water_level":"covers","seamark:type":"rock"}},"geometry":{"type":"Point","coordinates":[27.1097249,36.6479089]}},{"type":"Feature","properties":{"source_id":"osm:node/5932389942","source_name":"OpenStreetMap / OpenSeaMap seamark tags","source_version":"osm-snapshot-2026-09-13","feature_type":"rock","restriction_class":"HARD_NO_GO","classification_rule":"seamark:type=rock is a physical hazard","tags":{"seamark:rock:water_level":"covers","seamark:type":"rock"}},"geometry":{"type":"Point","coordinates":[27.1170862,36.6483716]}},{"type":"Feature","properties":{"source_id":"osm:node/5932389943","source_name":"OpenStreetMap / OpenSeaMap seamark tags","source_version":"osm-snapshot-2026-09-13","feature_type":"rock","restriction_class":"HARD_NO_GO","classification_rule":"seamark:type=rock is a physical hazard","tags":{"seamark:rock:water_level":"covers","seamark:type":"rock"}},"geometry":{"type":"Point","coordinates":[27.1177259,36.6483802]}},{"type":"Feature","properties":{"source_id":"osm:node/5932389944","source_name":"OpenStreetMap / OpenSeaMap seamark tags","source_version":"osm-snapshot-2026-09-13","feature_type":"rock","restriction_class":"HARD_NO_GO","classification_rule":"seamark:type=rock is a physical hazard","tags":{"seamark:rock:water_level":"covers","seamark:type":"rock"}},"geometry":{"type":"Point","coordinates":[27.1161434,36.6455245]}},{"type":"Feature","properties":{"source_id":"osm:node/5932389945","source_name":"OpenStreetMap / OpenSeaMap seamark tags","source_version":"osm-snapshot-2026-09-13","feature_type":"rock","restriction_class":"HARD_NO_GO","classification_rule":"seamark:type=rock is a physical hazard","tags":{"seamark:rock:water_level":"covers","seamark:type":"rock"}},"geometry":{"type":"Point","coordinates":[27.1167952,36.6473709]}},{"type":"Feature","properties":{"source_id":"osm:node/5932389946","source_name":"OpenStreetMap / OpenSeaMap seamark tags","source_version":"osm-snapshot-2026-09-13","feature_type":"rock","restriction_class":"HARD_NO_GO","classification_rule":"seamark:type=rock is a physical hazard","tags":{"seamark:rock:water_level":"covers","seamark:type":"rock"}},"geometry":{"type":"Point","coordinates":[27.1166798,36.64716]}},{"type":"Feature","properties":{"source_id":"osm:node/5932389947","source_name":"OpenStreetMap / OpenSeaMap seamark tags","source_version":"osm-snapshot-2026-09-13","feature_type":"rock","restriction_class":"HARD_NO_GO","classification_rule":"seamark:type=rock is a physical hazard","tags":{"seamark:rock:water_level":"covers","seamark:type":"rock"}},"geometry":{"type":"Point","coordinates":[27.1162936,36.6459269]}},{"type":"Feature","properties":{"source_id":"osm:node/5932389948","source_name":"OpenStreetMap / OpenSeaMap seamark tags","source_version":"osm-snapshot-2026-09-13","feature_type":"rock","restriction_class":"HARD_NO_GO","classification_rule":"seamark:type=rock is a physical hazard","tags":{"seamark:rock:water_level":"covers","seamark:type":"rock"}},"geometry":{"type":"Point","coordinates":[27.1111035,36.6406994]}},{"type":"Feature","properties":{"source_id":"osm:node/5932389949","source_name":"OpenStreetMap / OpenSeaMap seamark tags","source_version":"osm-snapshot-2026-09-13","feature_type":"rock","restriction_class":"HARD_NO_GO","classification_rule":"seamark:type=rock is a physical hazard","tags":{"seamark:rock:water_level":"covers","seamark:type":"rock"}},"geometry":{"type":"Point","coordinates":[27.1122569,36.6396319]}},{"type":"Feature","properties":{"source_id":"osm:node/5932389950","source_name":"OpenStreetMap / OpenSeaMap seamark tags","source_version":"osm-snapshot-2026-09-13","feature_type":"rock","restriction_class":"HARD_NO_GO","classification_rule":"seamark:type=rock is a physical hazard","tags":{"seamark:rock:water_level":"awash","seamark:type":"rock"}},"geometry":{"type":"Point","coordinates":[27.1103364,36.640919]}},{"type":"Feature","properties":{"source_id":"osm:node/5932389951","source_name":"OpenStreetMap / OpenSeaMap seamark tags","source_version":"osm-snapshot-2026-09-13","feature_type":"rock","restriction_class":"HARD_NO_GO","classification_rule":"seamark:type=rock is a physical hazard","tags":{"seamark:rock:water_level":"covers","seamark:type":"rock"}},"geometry":{"type":"Point","coordinates":[27.1103311,36.6411944]}},{"type":"Feature","properties":{"source_id":"osm:node/5932389952","source_name":"OpenStreetMap / OpenSeaMap seamark tags","source_version":"osm-snapshot-2026-09-13","feature_type":"rock","restriction_class":"HARD_NO_GO","classification_rule":"seamark:type=rock is a physical hazard","tags":{"seamark:rock:water_level":"submerged","seamark:type":"rock"}},"geometry":{"type":"Point","coordinates":[27.1126163,36.6392704]}},{"type":"Feature","properties":{"source_id":"osm:node/5932389953","source_name":"OpenStreetMap / OpenSeaMap seamark tags","source_version":"osm-snapshot-2026-09-13","feature_type":"rock","restriction_class":"HARD_NO_GO","classification_rule":"seamark:type=rock is a physical hazard","tags":{"seamark:rock:water_level":"submerged","seamark:type":"rock"}},"geometry":{"type":"Point","coordinates":[27.1132976,36.6389863]}},{"type":"Feature","properties":{"source_id":"osm:node/5932389954","source_name":"OpenStreetMap / OpenSeaMap seamark tags","source_version":"osm-snapshot-2026-09-13","feature_type":"rock","restriction_class":"HARD_NO_GO","classification_rule":"seamark:type=rock is a physical hazard","tags":{"seamark:rock:water_level":"submerged","seamark:type":"rock"}},"geometry":{"type":"Point","coordinates":[27.1082765,36.6337303]}},{"type":"Feature","properties":{"source_id":"osm:node/5932389955","source_name":"OpenStreetMap / OpenSeaMap seamark tags","source_version":"osm-snapshot-2026-09-13","feature_type":"rock","restriction_class":"HARD_NO_GO","classification_rule":"seamark:type=rock is a physical hazard","tags":{"seamark:rock:water_level":"submerged","seamark:type":"rock"}},"geometry":{"type":"Point","coordinates":[27.1077079,36.6342856]}},{"type":"Feature","properties":{"source_id":"osm:node/5932389956","source_name":"OpenStreetMap / OpenSeaMap seamark tags","source_version":"osm-snapshot-2026-09-13","feature_type":"rock","restriction_class":"HARD_NO_GO","classification_rule":"seamark:type=rock is a physical hazard","tags":{"seamark:rock:water_level":"submerged","seamark:type":"rock"}},"geometry":{"type":"Point","coordinates":[27.1087003,36.6340962]}},{"type":"Feature","properties":{"source_id":"osm:node/5932389957","source_name":"OpenStreetMap / OpenSeaMap seamark tags","source_version":"osm-snapshot-2026-09-13","feature_type":"rock","restriction_class":"HARD_NO_GO","classification_rule":"seamark:type=rock is a physical hazard","tags":{"seamark:rock:water_level":"submerged","seamark:type":"rock"}},"geometry":{"type":"Point","coordinates":[27.1087646,36.6345482]}},{"type":"Feature","properties":{"source_id":"osm:node/5932389958","source_name":"OpenStreetMap / OpenSeaMap seamark tags","source_version":"osm-snapshot-2026-09-13","feature_type":"rock","restriction_class":"HARD_NO_GO","classification_rule":"seamark:type=rock is a physical hazard","tags":{"seamark:rock:water_level":"submerged","seamark:type":"rock"}},"geometry":{"type":"Point","coordinates":[27.1083033,36.6350562]}},{"type":"Feature","properties":{"source_id":"osm:node/5932389959","source_name":"OpenStreetMap / OpenSeaMap seamark tags","source_version":"osm-snapshot-2026-09-13","feature_type":"rock","restriction_class":"HARD_NO_GO","classification_rule":"seamark:type=rock is a physical hazard","tags":{"seamark:rock:water_level":"submerged","seamark:type":"rock"}},"geometry":{"type":"Point","coordinates":[27.1074879,36.6350777]}},{"type":"Feature","properties":{"source_id":"osm:node/5932389960","source_name":"OpenStreetMap / OpenSeaMap seamark tags","source_version":"osm-snapshot-2026-09-13","feature_type":"rock","restriction_class":"HARD_NO_GO","classification_rule":"seamark:type=rock is a physical hazard","tags":{"seamark:rock:water_level":"submerged","seamark:type":"rock"}},"geometry":{"type":"Point","coordinates":[27.1076006,36.6335926]}},{"type":"Feature","properties":{"source_id":"osm:node/5939862685","source_name":"OpenStreetMap / OpenSeaMap seamark tags","source_version":"osm-snapshot-2026-09-13","feature_type":"rock","restriction_class":"HARD_NO_GO","classification_rule":"seamark:type=rock is a physical hazard","tags":{"seamark:rock:water_level":"awash","seamark:type":"rock"}},"geometry":{"type":"Point","coordinates":[27.1326256,36.6819415]}},{"type":"Feature","properties":{"source_id":"osm:node/5939862686","source_name":"OpenStreetMap / OpenSeaMap seamark tags","source_version":"osm-snapshot-2026-09-13","feature_type":"rock","restriction_class":"HARD_NO_GO","classification_rule":"seamark:type=rock is a physical hazard","tags":{"seamark:rock:water_level":"submerged","seamark:type":"rock"}},"geometry":{"type":"Point","coordinates":[27.1313274,36.6819845]}},{"type":"Feature","properties":{"source_id":"osm:node/5939862687","source_name":"OpenStreetMap / OpenSeaMap seamark tags","source_version":"osm-snapshot-2026-09-13","feature_type":"rock","restriction_class":"HARD_NO_GO","classification_rule":"seamark:type=rock is a physical hazard","tags":{"seamark:rock:water_level":"submerged","seamark:type":"rock"}},"geometry":{"type":"Point","coordinates":[27.1289939,36.6802766]}},{"type":"Feature","properties":{"source_id":"osm:node/5939862688","source_name":"OpenStreetMap / OpenSeaMap seamark tags","source_version":"osm-snapshot-2026-09-13","feature_type":"rock","restriction_class":"HARD_NO_GO","classification_rule":"seamark:type=rock is a physical hazard","tags":{"seamark:rock:water_level":"awash","seamark:type":"rock"}},"geometry":{"type":"Point","coordinates":[27.138623,36.6619257]}},{"type":"Feature","properties":{"source_id":"osm:node/5939862689","source_name":"OpenStreetMap / OpenSeaMap seamark tags","source_version":"osm-snapshot-2026-09-13","feature_type":"rock","restriction_class":"HARD_NO_GO","classification_rule":"seamark:type=rock is a physical hazard","tags":{"seamark:rock:water_level":"submerged","seamark:type":"rock"}},"geometry":{"type":"Point","coordinates":[27.1392024,36.662072]}},{"type":"Feature","properties":{"source_id":"osm:node/5939862690","source_name":"OpenStreetMap / OpenSeaMap seamark tags","source_version":"osm-snapshot-2026-09-13","feature_type":"rock","restriction_class":"HARD_NO_GO","classification_rule":"seamark:type=rock is a physical hazard","tags":{"seamark:rock:water_level":"submerged","seamark:type":"rock"}},"geometry":{"type":"Point","coordinates":[27.1399051,36.6572222]}},{"type":"Feature","properties":{"source_id":"osm:node/5939862691","source_name":"OpenStreetMap / OpenSeaMap seamark tags","source_version":"osm-snapshot-2026-09-13","feature_type":"rock","restriction_class":"HARD_NO_GO","classification_rule":"seamark:type=rock is a physical hazard","tags":{"seamark:rock:water_level":"submerged","seamark:type":"rock"}},"geometry":{"type":"Point","coordinates":[27.1399426,36.656865]}},{"type":"Feature","properties":{"source_id":"osm:node/5939862692","source_name":"OpenStreetMap / OpenSeaMap seamark tags","source_version":"osm-snapshot-2026-09-13","feature_type":"rock","restriction_class":"HARD_NO_GO","classification_rule":"seamark:type=rock is a physical hazard","tags":{"seamark:rock:water_level":"submerged","seamark:type":"rock"}},"geometry":{"type":"Point","coordinates":[27.1392184,36.6578505]}},{"type":"Feature","properties":{"source_id":"osm:node/5939862693","source_name":"OpenStreetMap / OpenSeaMap seamark tags","source_version":"osm-snapshot-2026-09-13","feature_type":"rock","restriction_class":"HARD_NO_GO","classification_rule":"seamark:type=rock is a physical hazard","tags":{"seamark:rock:water_level":"submerged","seamark:type":"rock"}},"geometry":{"type":"Point","coordinates":[27.1385854,36.6574459]}},{"type":"Feature","properties":{"source_id":"osm:node/5939862694","source_name":"OpenStreetMap / OpenSeaMap seamark tags","source_version":"osm-snapshot-2026-09-13","feature_type":"rock","restriction_class":"HARD_NO_GO","classification_rule":"seamark:type=rock is a physical hazard","tags":{"seamark:rock:water_level":"submerged","seamark:type":"rock"}},"geometry":{"type":"Point","coordinates":[27.1388161,36.6564002]}},{"type":"Feature","properties":{"source_id":"osm:node/5939862695","source_name":"OpenStreetMap / OpenSeaMap seamark tags","source_version":"osm-snapshot-2026-09-13","feature_type":"rock","restriction_class":"HARD_NO_GO","classification_rule":"seamark:type=rock is a physical hazard","tags":{"seamark:rock:water_level":"submerged","seamark:type":"rock"}},"geometry":{"type":"Point","coordinates":[27.1367401,36.6652434]}},{"type":"Feature","properties":{"source_id":"osm:node/5939862696","source_name":"OpenStreetMap / OpenSeaMap seamark tags","source_version":"osm-snapshot-2026-09-13","feature_type":"rock","restriction_class":"HARD_NO_GO","classification_rule":"seamark:type=rock is a physical hazard","tags":{"seamark:rock:water_level":"submerged","seamark:type":"rock"}},"geometry":{"type":"Point","coordinates":[27.1342778,36.6646797]}},{"type":"Feature","properties":{"source_id":"osm:node/5939862697","source_name":"OpenStreetMap / OpenSeaMap seamark tags","source_version":"osm-snapshot-2026-09-13","feature_type":"rock","restriction_class":"HARD_NO_GO","classification_rule":"seamark:type=rock is a physical hazard","tags":{"seamark:rock:water_level":"submerged","seamark:type":"rock"}},"geometry":{"type":"Point","coordinates":[27.1338312,36.6646732]}},{"type":"Feature","properties":{"source_id":"osm:node/5939862698","source_name":"OpenStreetMap / OpenSeaMap seamark tags","source_version":"osm-snapshot-2026-09-13","feature_type":"rock","restriction_class":"HARD_NO_GO","classification_rule":"seamark:type=rock is a physical hazard","tags":{"seamark:rock:water_level":"submerged","seamark:type":"rock"}},"geometry":{"type":"Point","coordinates":[27.1336569,36.6648141]}},{"type":"Feature","properties":{"source_id":"osm:node/5939862699","source_name":"OpenStreetMap / OpenSeaMap seamark tags","source_version":"osm-snapshot-2026-09-13","feature_type":"rock","restriction_class":"HARD_NO_GO","classification_rule":"seamark:type=rock is a physical hazard","tags":{"seamark:rock:water_level":"submerged","seamark:type":"rock"}},"geometry":{"type":"Point","coordinates":[27.1338567,36.6648733]}},{"type":"Feature","properties":{"source_id":"osm:node/5939862700","source_name":"OpenStreetMap / OpenSeaMap seamark tags","source_version":"osm-snapshot-2026-09-13","feature_type":"rock","restriction_class":"HARD_NO_GO","classification_rule":"seamark:type=rock is a physical hazard","tags":{"seamark:rock:water_level":"awash","seamark:type":"rock"}},"geometry":{"type":"Point","coordinates":[27.1389502,36.6666268]}},{"type":"Feature","properties":{"source_id":"osm:node/5939862701","source_name":"OpenStreetMap / OpenSeaMap seamark tags","source_version":"osm-snapshot-2026-09-13","feature_type":"rock","restriction_class":"HARD_NO_GO","classification_rule":"seamark:type=rock is a physical hazard","tags":{"seamark:rock:water_level":"submerged","seamark:type":"rock"}},"geometry":{"type":"Point","coordinates":[27.1392265,36.6669473]}},{"type":"Feature","properties":{"source_id":"osm:node/5939862702","source_name":"OpenStreetMap / OpenSeaMap seamark tags","source_version":"osm-snapshot-2026-09-13","feature_type":"rock","restriction_class":"HARD_NO_GO","classification_rule":"seamark:type=rock is a physical hazard","tags":{"seamark:rock:water_level":"submerged","seamark:type":"rock"}},"geometry":{"type":"Point","coordinates":[27.1384835,36.6670893]}},{"type":"Feature","properties":{"source_id":"osm:node/5939862703","source_name":"OpenStreetMap / OpenSeaMap seamark tags","source_version":"osm-snapshot-2026-09-13","feature_type":"rock","restriction_class":"HARD_NO_GO","classification_rule":"seamark:type=rock is a physical hazard","tags":{"seamark:rock:water_level":"submerged","seamark:type":"rock"}},"geometry":{"type":"Point","coordinates":[27.1353883,36.6677972]}},{"type":"Feature","properties":{"source_id":"osm:node/5939862704","source_name":"OpenStreetMap / OpenSeaMap seamark tags","source_version":"osm-snapshot-2026-09-13","feature_type":"rock","restriction_class":"HARD_NO_GO","classification_rule":"seamark:type=rock is a physical hazard","tags":{"seamark:rock:water_level":"submerged","seamark:type":"rock"}},"geometry":{"type":"Point","coordinates":[27.1359864,36.6665945]}},{"type":"Feature","properties":{"source_id":"osm:node/5939862705","source_name":"OpenStreetMap / OpenSeaMap seamark tags","source_version":"osm-snapshot-2026-09-13","feature_type":"rock","restriction_class":"HARD_NO_GO","classification_rule":"seamark:type=rock is a physical hazard","tags":{"seamark:rock:water_level":"submerged","seamark:type":"rock"}},"geometry":{"type":"Point","coordinates":[27.1355854,36.6679327]}},{"type":"Feature","properties":{"source_id":"osm:node/5939862706","source_name":"OpenStreetMap / OpenSeaMap seamark tags","source_version":"osm-snapshot-2026-09-13","feature_type":"rock","restriction_class":"HARD_NO_GO","classification_rule":"seamark:type=rock is a physical hazard","tags":{"seamark:rock:water_level":"submerged","seamark:type":"rock"}},"geometry":{"type":"Point","coordinates":[27.1359824,36.668065]}},{"type":"Feature","properties":{"source_id":"osm:node/5939862707","source_name":"OpenStreetMap / OpenSeaMap seamark tags","source_version":"osm-snapshot-2026-09-13","feature_type":"rock","restriction_class":"HARD_NO_GO","classification_rule":"seamark:type=rock is a physical hazard","tags":{"seamark:rock:water_level":"submerged","seamark:type":"rock"}},"geometry":{"type":"Point","coordinates":[27.1312147,36.6675132]}},{"type":"Feature","properties":{"source_id":"osm:node/5939862708","source_name":"OpenStreetMap / OpenSeaMap seamark tags","source_version":"osm-snapshot-2026-09-13","feature_type":"rock","restriction_class":"HARD_NO_GO","classification_rule":"seamark:type=rock is a physical hazard","tags":{"seamark:rock:water_level":"submerged","seamark:type":"rock"}},"geometry":{"type":"Point","coordinates":[27.1311852,36.6674379]}},{"type":"Feature","properties":{"source_id":"osm:node/5939862709","source_name":"OpenStreetMap / OpenSeaMap seamark tags","source_version":"osm-snapshot-2026-09-13","feature_type":"rock","restriction_class":"HARD_NO_GO","classification_rule":"seamark:type=rock is a physical hazard","tags":{"seamark:rock:water_level":"submerged","seamark:type":"rock"}},"geometry":{"type":"Point","coordinates":[27.1317619,36.6675261]}},{"type":"Feature","properties":{"source_id":"osm:node/5939862710","source_name":"OpenStreetMap / OpenSeaMap seamark tags","source_version":"osm-snapshot-2026-09-13","feature_type":"rock","restriction_class":"HARD_NO_GO","classification_rule":"seamark:type=rock is a physical hazard","tags":{"seamark:rock:water_level":"submerged","seamark:type":"rock"}},"geometry":{"type":"Point","coordinates":[27.1339452,36.6677154]}},{"type":"Feature","properties":{"source_id":"osm:node/5939862711","source_name":"OpenStreetMap / OpenSeaMap seamark tags","source_version":"osm-snapshot-2026-09-13","feature_type":"rock","restriction_class":"HARD_NO_GO","classification_rule":"seamark:type=rock is a physical hazard","tags":{"seamark:rock:water_level":"submerged","seamark:type":"rock"}},"geometry":{"type":"Point","coordinates":[27.1340069,36.6675863]}},{"type":"Feature","properties":{"source_id":"osm:node/5939862712","source_name":"OpenStreetMap / OpenSeaMap seamark tags","source_version":"osm-snapshot-2026-09-13","feature_type":"rock","restriction_class":"HARD_NO_GO","classification_rule":"seamark:type=rock is a physical hazard","tags":{"seamark:rock:water_level":"submerged","seamark:type":"rock"}},"geometry":{"type":"Point","coordinates":[27.1340069,36.6675842]}},{"type":"Feature","properties":{"source_id":"osm:node/5939862713","source_name":"OpenStreetMap / OpenSeaMap seamark tags","source_version":"osm-snapshot-2026-09-13","feature_type":"rock","restriction_class":"HARD_NO_GO","classification_rule":"seamark:type=rock is a physical hazard","tags":{"seamark:rock:water_level":"submerged","seamark:type":"rock"}},"geometry":{"type":"Point","coordinates":[27.1338218,36.6675734]}},{"type":"Feature","properties":{"source_id":"osm:node/5939864022","source_name":"OpenStreetMap / OpenSeaMap seamark tags","source_version":"osm-snapshot-2026-09-13","feature_type":"rock","restriction_class":"HARD_NO_GO","classification_rule":"seamark:type=rock is a physical hazard","tags":{"seamark:rock:water_level":"submerged","seamark:type":"rock"}},"geometry":{"type":"Point","coordinates":[27.1355814,36.6666655]}},{"type":"Feature","properties":{"source_id":"osm:node/5939864023","source_name":"OpenStreetMap / OpenSeaMap seamark tags","source_version":"osm-snapshot-2026-09-13","feature_type":"rock","restriction_class":"HARD_NO_GO","classification_rule":"seamark:type=rock is a physical hazard","tags":{"seamark:rock:water_level":"submerged","seamark:type":"rock"}},"geometry":{"type":"Point","coordinates":[27.1357182,36.6669646]}},{"type":"Feature","properties":{"source_id":"osm:node/5939864024","source_name":"OpenStreetMap / OpenSeaMap seamark tags","source_version":"osm-snapshot-2026-09-13","feature_type":"rock","restriction_class":"HARD_NO_GO","classification_rule":"seamark:type=rock is a physical hazard","tags":{"seamark:rock:water_level":"submerged","seamark:type":"rock"}},"geometry":{"type":"Point","coordinates":[27.1360776,36.6669559]}},{"type":"Feature","properties":{"source_id":"osm:node/5939864025","source_name":"OpenStreetMap / OpenSeaMap seamark tags","source_version":"osm-snapshot-2026-09-13","feature_type":"rock","restriction_class":"HARD_NO_GO","classification_rule":"seamark:type=rock is a physical hazard","tags":{"seamark:rock:water_level":"covers","seamark:type":"rock"}},"geometry":{"type":"Point","coordinates":[27.1297395,36.679756]}},{"type":"Feature","properties":{"source_id":"osm:node/5939864026","source_name":"OpenStreetMap / OpenSeaMap seamark tags","source_version":"osm-snapshot-2026-09-13","feature_type":"rock","restriction_class":"HARD_NO_GO","classification_rule":"seamark:type=rock is a physical hazard","tags":{"seamark:rock:water_level":"covers","seamark:type":"rock"}},"geometry":{"type":"Point","coordinates":[27.1281946,36.6768262]}},{"type":"Feature","properties":{"source_id":"osm:node/5939864027","source_name":"OpenStreetMap / OpenSeaMap seamark tags","source_version":"osm-snapshot-2026-09-13","feature_type":"rock","restriction_class":"HARD_NO_GO","classification_rule":"seamark:type=rock is a physical hazard","tags":{"seamark:rock:water_level":"covers","seamark:type":"rock"}},"geometry":{"type":"Point","coordinates":[27.1284038,36.6770112]}},{"type":"Feature","properties":{"source_id":"osm:node/5939864028","source_name":"OpenStreetMap / OpenSeaMap seamark tags","source_version":"osm-snapshot-2026-09-13","feature_type":"rock","restriction_class":"HARD_NO_GO","classification_rule":"seamark:type=rock is a physical hazard","tags":{"seamark:rock:water_level":"covers","seamark:type":"rock"}},"geometry":{"type":"Point","coordinates":[27.1254748,36.6759829]}},{"type":"Feature","properties":{"source_id":"osm:node/5939864029","source_name":"OpenStreetMap / OpenSeaMap seamark tags","source_version":"osm-snapshot-2026-09-13","feature_type":"rock","restriction_class":"HARD_NO_GO","classification_rule":"seamark:type=rock is a physical hazard","tags":{"seamark:rock:water_level":"awash","seamark:type":"rock"}},"geometry":{"type":"Point","coordinates":[27.1296537,36.6789687]}},{"type":"Feature","properties":{"source_id":"osm:node/5939865001","source_name":"OpenStreetMap / OpenSeaMap seamark tags","source_version":"osm-snapshot-2026-09-13","feature_type":"rock","restriction_class":"HARD_NO_GO","classification_rule":"seamark:type=rock is a physical hazard","tags":{"seamark:rock:water_level":"submerged","seamark:type":"rock"}},"geometry":{"type":"Point","coordinates":[27.1305978,36.6128925]}},{"type":"Feature","properties":{"source_id":"osm:node/5939865002","source_name":"OpenStreetMap / OpenSeaMap seamark tags","source_version":"osm-snapshot-2026-09-13","feature_type":"rock","restriction_class":"HARD_NO_GO","classification_rule":"seamark:type=rock is a physical hazard","tags":{"seamark:rock:water_level":"submerged","seamark:type":"rock"}},"geometry":{"type":"Point","coordinates":[27.1305174,36.6143565]}},{"type":"Feature","properties":{"source_id":"osm:node/8956871627","source_name":"OpenStreetMap / OpenSeaMap seamark tags","source_version":"osm-snapshot-2026-09-13","feature_type":"wreck","restriction_class":"HARD_NO_GO","classification_rule":"seamark:type=wreck is a physical hazard","tags":{"historic":"wreck","seamark:type":"wreck"}},"geometry":{"type":"Point","coordinates":[26.919711,36.7257233]}},{"type":"Feature","properties":{"source_id":"osm:way/1071614127","source_name":"OpenStreetMap / OpenSeaMap seamark tags","source_version":"osm-snapshot-2026-09-13","feature_type":"breakwater","restriction_class":"HARD_NO_GO","classification_rule":"man_made=breakwater is a physical marine obstacle","tags":{"admin_level":"6","boundary":"administrative","man_made":"breakwater","natural":"coastline","source":"PGS"}},"geometry":{"type":"LineString","coordinates":[[27.3464837,37.0198919],[27.3464216,37.019857],[27.3463998,37.0198369],[27.346393,37.0197995],[27.3464033,37.0197631],[27.346441,37.0197348],[27.346481,37.0197193],[27.3465289,37.0197156],[27.3467585,37.0197512],[27.3472904,37.0197338],[27.3474086,37.019811],[27.3474303,37.0198605],[27.3474356,37.0199263]]}},{"type":"Feature","properties":{"source_id":"osm:way/1124718463","source_name":"OpenStreetMap / OpenSeaMap seamark tags","source_version":"osm-snapshot-2026-09-13","feature_type":"breakwater","restriction_class":"HARD_NO_GO","classification_rule":"man_made=breakwater is a physical marine obstacle","tags":{"area":"yes","man_made":"breakwater"}},"geometry":{"type":"Polygon","coordinates":[[[27.7756073,36.6078259],[27.776085,36.6079235],[27.7760782,36.6079292],[27.7760694,36.6079412],[27.7756008,36.6078425],[27.7756073,36.6078259]]]}},{"type":"Feature","properties":{"source_id":"osm:way/1211930732","source_name":"OpenStreetMap / OpenSeaMap seamark tags","source_version":"osm-snapshot-2026-09-13","feature_type":"breakwater","restriction_class":"HARD_NO_GO","classification_rule":"man_made=breakwater is a physical marine obstacle","tags":{"man_made":"breakwater"}},"geometry":{"type":"Polygon","coordinates":[[[27.5726561,36.683423],[27.5728501,36.6833074],[27.5728968,36.6834909],[27.5729585,36.6836236],[27.5729417,36.6836527],[27.5729793,36.6837505],[27.5729645,36.6837796],[27.572929,36.6837855],[27.572895,36.6837816],[27.5727153,36.6834723],[27.5726561,36.683423]]]}},{"type":"Feature","properties":{"source_id":"osm:way/1214837670","source_name":"OpenStreetMap / OpenSeaMap seamark tags","source_version":"osm-snapshot-2026-09-13","feature_type":"breakwater","restriction_class":"HARD_NO_GO","classification_rule":"man_made=breakwater is a physical marine obstacle","tags":{"area":"yes","man_made":"breakwater"}},"geometry":{"type":"Polygon","coordinates":[[[27.4786909,37.0892878],[27.4787531,37.0892923],[27.4788625,37.0892923],[27.4789662,37.0892788],[27.4790934,37.089236],[27.4790865,37.0892151],[27.4790928,37.089185],[27.4790455,37.0892096],[27.4789493,37.0892382],[27.4788342,37.0892487],[27.4787757,37.0892532],[27.4787267,37.0892427],[27.478689,37.0892562],[27.478672,37.0892698],[27.4786909,37.0892878]]]}},{"type":"Feature","properties":{"source_id":"osm:way/1215292896","source_name":"OpenStreetMap / OpenSeaMap seamark tags","source_version":"osm-snapshot-2026-09-13","feature_type":"breakwater","restriction_class":"HARD_NO_GO","classification_rule":"man_made=breakwater is a physical marine obstacle","tags":{"area":"yes","man_made":"breakwater"}},"geometry":{"type":"Polygon","coordinates":[[[27.4547817,37.0888236],[27.4548984,37.0888662],[27.4552551,37.088663],[27.4553382,37.0884511],[27.4554133,37.0877964],[27.4555904,37.0873043],[27.455467,37.0872914],[27.4553036,37.0877284],[27.4552574,37.0881419],[27.455233,37.0884117],[27.4551213,37.0885916],[27.4549437,37.0886999],[27.4547817,37.0888236]]]}},{"type":"Feature","properties":{"source_id":"osm:way/1395430811","source_name":"OpenStreetMap / OpenSeaMap seamark tags","source_version":"osm-snapshot-2026-09-13","feature_type":"breakwater","restriction_class":"HARD_NO_GO","classification_rule":"man_made=breakwater is a physical marine obstacle","tags":{"area":"yes","man_made":"breakwater"}},"geometry":{"type":"Polygon","coordinates":[[[27.2532559,37.0140545],[27.2540784,37.0140551],[27.2540912,37.014041],[27.25409,37.0140233],[27.2540843,37.0140126],[27.2540804,37.0140033],[27.2540215,37.0140105],[27.2539446,37.0140124],[27.2533134,37.0140128],[27.2532869,37.0140138],[27.2532752,37.0140165],[27.2532655,37.0140238],[27.2532585,37.0140346],[27.2532559,37.0140443],[27.2532559,37.0140545]]]}},{"type":"Feature","properties":{"source_id":"osm:way/1395430815","source_name":"OpenStreetMap / OpenSeaMap seamark tags","source_version":"osm-snapshot-2026-09-13","feature_type":"breakwater","restriction_class":"HARD_NO_GO","classification_rule":"man_made=breakwater is a physical marine obstacle","tags":{"area":"yes","man_made":"breakwater"}},"geometry":{"type":"Polygon","coordinates":[[[27.2543951,37.0139235],[27.2544305,37.0139062],[27.254465,37.0138722],[27.2545216,37.0138027],[27.254559,37.0137566],[27.2545831,37.0137429],[27.2544486,37.0139612],[27.2544113,37.0139426],[27.2543951,37.0139235]]]}},{"type":"Feature","properties":{"source_id":"osm:way/1395431422","source_name":"OpenStreetMap / OpenSeaMap seamark tags","source_version":"osm-snapshot-2026-09-13","feature_type":"breakwater","restriction_class":"HARD_NO_GO","classification_rule":"man_made=breakwater is a physical marine obstacle","tags":{"area":"yes","man_made":"breakwater"}},"geometry":{"type":"Polygon","coordinates":[[[27.2546707,37.013593],[27.2551239,37.0127146],[27.2551522,37.0126588],[27.255154,37.0126433],[27.2551337,37.0126334],[27.2551213,37.0126447],[27.2551027,37.0126737],[27.2550868,37.0126821],[27.2550762,37.0127083],[27.255061,37.0127359],[27.2547746,37.0132991],[27.2546282,37.0135772],[27.2546707,37.013593]]]}},{"type":"Feature","properties":{"source_id":"osm:way/1395431423","source_name":"OpenStreetMap / OpenSeaMap seamark tags","source_version":"osm-snapshot-2026-09-13","feature_type":"breakwater","restriction_class":"HARD_NO_GO","classification_rule":"man_made=breakwater is a physical marine obstacle","tags":{"area":"yes","man_made":"breakwater"}},"geometry":{"type":"Polygon","coordinates":[[[27.2548102,37.0120717],[27.2548639,37.0120875],[27.2549386,37.012108],[27.2550145,37.0121211],[27.2550671,37.0121295],[27.2550893,37.0121593],[27.2551033,37.0122003],[27.2550928,37.0122124],[27.2550572,37.0122],[27.2550277,37.0121576],[27.2549889,37.0121454],[27.2548075,37.0121046],[27.2545878,37.012062],[27.254562,37.0120564],[27.2545438,37.0120428],[27.254538,37.0120264],[27.2545413,37.0120066],[27.2545523,37.011991],[27.2545713,37.0119866],[27.2546103,37.0119903],[27.2548737,37.0120398],[27.2550164,37.0120652],[27.2550489,37.0120631],[27.2550844,37.012054],[27.2551268,37.0120273],[27.2551511,37.0119992],[27.2551617,37.0119643],[27.2551662,37.0119289],[27.2551415,37.0119256],[27.2551283,37.0119118],[27.2551228,37.0118919],[27.2551447,37.0113818],[27.2551469,37.0113297],[27.255192,37.0113184],[27.2551932,37.0113641],[27.2551827,37.0114154],[27.2551803,37.0114676],[27.2551791,37.0115142],[27.2551698,37.011558],[27.2551721,37.0116382],[27.2551651,37.011709],[27.2551698,37.0117379],[27.2551815,37.011792],[27.255178,37.0118302],[27.2551756,37.011861],[27.255185,37.0118899],[27.2551827,37.011916],[27.255206,37.0119495],[27.2552072,37.0119831],[27.255199,37.0120083],[27.2551698,37.01204],[27.2551173,37.0120623],[27.2550461,37.0120875],[27.254997,37.0120819],[27.2549246,37.0120707],[27.2548616,37.0120577],[27.2548312,37.0120568],[27.2548114,37.0120568],[27.2548102,37.0120717]]]}},{"type":"Feature","properties":{"source_id":"osm:way/1395431424","source_name":"OpenStreetMap / OpenSeaMap seamark tags","source_version":"osm-snapshot-2026-09-13","feature_type":"breakwater","restriction_class":"HARD_NO_GO","classification_rule":"man_made=breakwater is a physical marine obstacle","tags":{"area":"yes","man_made":"breakwater"}},"geometry":{"type":"Polygon","coordinates":[[[27.255192,37.0113184],[27.2551904,37.011206],[27.2551764,37.0111445],[27.2551694,37.0111091],[27.2551507,37.0110811],[27.2551145,37.0110634],[27.2550561,37.0110373],[27.2550281,37.0110112],[27.2550106,37.0109925],[27.2550386,37.0109879],[27.2550935,37.0109869],[27.2551402,37.0110047],[27.2552067,37.0109888],[27.2552488,37.0109758],[27.2552849,37.0109515],[27.2553106,37.0109049],[27.255327,37.0108396],[27.2553153,37.010779],[27.2552883,37.0107765],[27.255219,37.0109099],[27.2551947,37.0109444],[27.2551527,37.0109775],[27.2545977,37.0108869],[27.2545619,37.0108877],[27.2545354,37.0109069],[27.2545301,37.0109306],[27.254535,37.0109534],[27.2545631,37.0109744],[27.2546518,37.0109953],[27.2547636,37.011015],[27.2550232,37.0110563],[27.2550692,37.0110671],[27.2551098,37.0110949],[27.2551339,37.011123],[27.2551491,37.0111598],[27.2551528,37.0112243],[27.2551488,37.0112851],[27.2551469,37.0113297],[27.255192,37.0113184]]]}},{"type":"Feature","properties":{"source_id":"osm:way/435434389","source_name":"OpenStreetMap / OpenSeaMap seamark tags","source_version":"osm-snapshot-2026-09-13","feature_type":"groyne","restriction_class":"HARD_NO_GO","classification_rule":"man_made=groyne is a physical marine obstacle","tags":{"man_made":"groyne"}},"geometry":{"type":"LineString","coordinates":[[26.9707879,36.7366562],[26.9711061,36.7368218]]}},{"type":"Feature","properties":{"source_id":"osm:way/504790944","source_name":"OpenStreetMap / OpenSeaMap seamark tags","source_version":"osm-snapshot-2026-09-13","feature_type":"breakwater","restriction_class":"HARD_NO_GO","classification_rule":"man_made=breakwater is a physical marine obstacle","tags":{"area":"yes","man_made":"breakwater"}},"geometry":{"type":"Polygon","coordinates":[[[26.8538562,37.1604538],[26.853823,37.1604401],[26.8537966,37.1604225],[26.8542769,37.1602967],[26.8543224,37.1602967],[26.8543365,37.1603079],[26.8543213,37.1603321],[26.8543163,37.1603555],[26.854286,37.1603499],[26.8541973,37.1603744],[26.8540662,37.1604105],[26.8538562,37.1604538]]]}},{"type":"Feature","properties":{"source_id":"osm:way/504796809","source_name":"OpenStreetMap / OpenSeaMap seamark tags","source_version":"osm-snapshot-2026-09-13","feature_type":"breakwater","restriction_class":"HARD_NO_GO","classification_rule":"man_made=breakwater is a physical marine obstacle","tags":{"area":"yes","man_made":"breakwater"}},"geometry":{"type":"Polygon","coordinates":[[[26.8633487,37.1499335],[26.8633387,37.1499124],[26.8633926,37.1498983],[26.8634714,37.1499202],[26.8636537,37.1498878],[26.8639837,37.1498264],[26.8640728,37.1497511],[26.863913,37.1497757],[26.8636268,37.1498503],[26.8634717,37.1498812],[26.8633874,37.1498699],[26.8633399,37.1498771],[26.8633146,37.1498976],[26.8633215,37.1499246],[26.8633487,37.1499335]]]}},{"type":"Feature","properties":{"source_id":"osm:way/504796912","source_name":"OpenStreetMap / OpenSeaMap seamark tags","source_version":"osm-snapshot-2026-09-13","feature_type":"breakwater","restriction_class":"HARD_NO_GO","classification_rule":"man_made=breakwater is a physical marine obstacle","tags":{"area":"yes","man_made":"breakwater"}},"geometry":{"type":"Polygon","coordinates":[[[26.8641299,37.1497423],[26.8642017,37.1497753],[26.8644434,37.1497362],[26.864573,37.1497781],[26.8649629,37.1499112],[26.865003,37.1498737],[26.8649341,37.1498652],[26.8647375,37.1497903],[26.8645935,37.1497354],[26.8645115,37.1497124],[26.8644468,37.149697],[26.8643136,37.149714],[26.8641299,37.1497423]]]}},{"type":"Feature","properties":{"source_id":"osm:way/504803190","source_name":"OpenStreetMap / OpenSeaMap seamark tags","source_version":"osm-snapshot-2026-09-13","feature_type":"breakwater","restriction_class":"HARD_NO_GO","classification_rule":"man_made=breakwater is a physical marine obstacle","tags":{"area":"yes","man_made":"breakwater"}},"geometry":{"type":"Polygon","coordinates":[[[26.8567553,37.1268592],[26.8567786,37.1268821],[26.8567238,37.1269639],[26.8566194,37.1270444],[26.8565539,37.127105],[26.8564937,37.1271742],[26.8562619,37.1273294],[26.8558584,37.1275932],[26.8556603,37.1277272],[26.8555895,37.1277978],[26.8555735,37.1278627],[26.8555824,37.127953],[26.8557222,37.1283706],[26.8558284,37.1286344],[26.8559682,37.1289547],[26.856023,37.129076],[26.8561115,37.1291437],[26.8562,37.1292002],[26.8563062,37.129251],[26.8566972,37.1294217],[26.8567521,37.1294316],[26.8567871,37.129399],[26.8567919,37.129431],[26.8567471,37.1294684],[26.8567223,37.1294764],[26.8566667,37.129467],[26.8562151,37.1292942],[26.8560217,37.1291959],[26.8559327,37.1291381],[26.8559022,37.1290975],[26.8556832,37.1285329],[26.8556359,37.128411],[26.8555365,37.1280965],[26.8554662,37.1278742],[26.8554657,37.1277904],[26.8555134,37.1277323],[26.8556374,37.1276465],[26.8560308,37.1273744],[26.8562744,37.1272026],[26.8565119,37.127033],[26.8567553,37.1268592]]]}},{"type":"Feature","properties":{"source_id":"osm:way/504816601","source_name":"OpenStreetMap / OpenSeaMap seamark tags","source_version":"osm-snapshot-2026-09-13","feature_type":"breakwater","restriction_class":"HARD_NO_GO","classification_rule":"man_made=breakwater is a physical marine obstacle","tags":{"area":"yes","man_made":"breakwater"}},"geometry":{"type":"Polygon","coordinates":[[[26.9926106,36.9473084],[26.9930333,36.9473618],[26.9932891,36.9474043],[26.9934792,36.9474771],[26.9937409,36.9476081],[26.993932,36.947731],[26.9939846,36.9477536],[26.99404,36.947744],[26.9940718,36.9477223],[26.9940609,36.9476771],[26.9940285,36.9476234],[26.9939491,36.9475726],[26.9937667,36.9474602],[26.9934743,36.9473399],[26.9933114,36.9472826],[26.9930332,36.9472332],[26.9920725,36.9471065],[26.9910458,36.946971],[26.9906194,36.9469258],[26.990584,36.9469437],[26.9906338,36.9469833],[26.9905503,36.9470342],[26.9906029,36.9470704],[26.9907339,36.947092],[26.9916005,36.9471808],[26.9922043,36.9472571],[26.9926106,36.9473084]]]}},{"type":"Feature","properties":{"source_id":"osm:way/504817986","source_name":"OpenStreetMap / OpenSeaMap seamark tags","source_version":"osm-snapshot-2026-09-13","feature_type":"breakwater","restriction_class":"HARD_NO_GO","classification_rule":"man_made=breakwater is a physical marine obstacle","tags":{"area":"yes","man_made":"breakwater"}},"geometry":{"type":"Polygon","coordinates":[[[26.9924021,36.9491559],[26.9923999,36.9491309],[26.9924283,36.9491057],[26.9924695,36.9490955],[26.9925257,36.9491211],[26.9925755,36.9491694],[26.9927409,36.9493955],[26.9928131,36.9494366],[26.9928923,36.9495318],[26.993137,36.9497518],[26.9932471,36.9498502],[26.9932858,36.9498938],[26.9933431,36.9499225],[26.9933692,36.9499854],[26.993498,36.9500894],[26.9935465,36.9501474],[26.9936278,36.950198],[26.9936599,36.9502309],[26.9937107,36.9502638],[26.9937287,36.9503088],[26.9937748,36.9503277],[26.9938505,36.9503978],[26.993879,36.9504496],[26.9939962,36.9505611],[26.9940309,36.9506025],[26.9940889,36.9506364],[26.9941236,36.9506797],[26.9941536,36.9507267],[26.9942189,36.9507574],[26.9942516,36.9507895],[26.9942703,36.9508254],[26.9943184,36.9508884],[26.9943571,36.9509215],[26.9943948,36.9510052],[26.9943997,36.9510441],[26.9943628,36.9510416],[26.9943339,36.9510397],[26.9942536,36.9509729],[26.9942483,36.9509492],[26.9942217,36.9509052],[26.9941817,36.9508728],[26.9941681,36.9508506],[26.9941223,36.9508285],[26.9941078,36.9508163],[26.9940683,36.9507806],[26.9940275,36.9507419],[26.9925167,36.9493428],[26.992511,36.9492574],[26.9924021,36.9491559]]]}},{"type":"Feature","properties":{"source_id":"osm:way/505084888","source_name":"OpenStreetMap / OpenSeaMap seamark tags","source_version":"osm-snapshot-2026-09-13","feature_type":"breakwater","restriction_class":"HARD_NO_GO","classification_rule":"man_made=breakwater is a physical marine obstacle","tags":{"area":"yes","man_made":"breakwater"}},"geometry":{"type":"Polygon","coordinates":[[[26.9661517,36.9301562],[26.9661273,36.930167],[26.9661065,36.9301772],[26.9660898,36.9301778],[26.9660656,36.9301853],[26.9660482,36.9302013],[26.9660288,36.9302094],[26.9660113,36.9302255],[26.9659912,36.9302373],[26.9659751,36.9302442],[26.965965,36.9302555],[26.965951,36.9302673],[26.9659409,36.9302732],[26.9659342,36.9302801],[26.9659335,36.9302876],[26.9659396,36.9302978],[26.9659483,36.9303],[26.9659637,36.9302941],[26.9659744,36.9302801],[26.9659878,36.9302694],[26.9659939,36.9302619],[26.9660113,36.9302453],[26.9660301,36.9302389],[26.9660408,36.9302367],[26.9660576,36.9302351],[26.9660697,36.9302244],[26.9660837,36.9302051],[26.9661126,36.9301922],[26.9661233,36.9301938],[26.9661394,36.9301869],[26.9661548,36.9301863],[26.9661679,36.930183],[26.9661517,36.9301562]]]}},{"type":"Feature","properties":{"source_id":"osm:way/505096432","source_name":"OpenStreetMap / OpenSeaMap seamark tags","source_version":"osm-snapshot-2026-09-13","feature_type":"breakwater","restriction_class":"HARD_NO_GO","classification_rule":"man_made=breakwater is a physical marine obstacle","tags":{"area":"yes","man_made":"breakwater"}},"geometry":{"type":"Polygon","coordinates":[[[26.9431483,36.9129138],[26.9430369,36.9129739],[26.9430787,36.912995],[26.9431181,36.9130597],[26.9431532,36.913129],[26.9431708,36.913176],[26.9431873,36.9132032],[26.9432078,36.9132095],[26.9432408,36.9132057],[26.9432551,36.9131689],[26.9432534,36.9131348],[26.9432116,36.9130635],[26.9431483,36.9129138]]]}},{"type":"Feature","properties":{"source_id":"osm:way/505235139","source_name":"OpenStreetMap / OpenSeaMap seamark tags","source_version":"osm-snapshot-2026-09-13","feature_type":"breakwater","restriction_class":"HARD_NO_GO","classification_rule":"man_made=breakwater is a physical marine obstacle","tags":{"area":"yes","man_made":"breakwater"}},"geometry":{"type":"Polygon","coordinates":[[[27.2558411,37.0050391],[27.2558543,37.0050608],[27.2558832,37.0050715],[27.2559163,37.0050747],[27.2559499,37.0050608],[27.2559655,37.0050335],[27.2559053,37.0050126],[27.2560287,37.00482],[27.2557411,37.0046962],[27.2554695,37.0045787],[27.2552855,37.0044899],[27.2551753,37.0044317],[27.255077,37.0043737],[27.2549819,37.0043124],[27.2548595,37.0042177],[27.2547451,37.0041198],[27.2546682,37.0040532],[27.2545758,37.0039516],[27.2544949,37.0038572],[27.2544323,37.0037681],[27.2543629,37.0036682],[27.254308,37.003575],[27.2542638,37.0034733],[27.25423,37.0033859],[27.2541874,37.0032558],[27.254158,37.0031541],[27.2541421,37.003061],[27.2541384,37.0029758],[27.2541358,37.0028674],[27.2541374,37.0027293],[27.2541535,37.0026126],[27.2541827,37.0024608],[27.2542128,37.0023095],[27.2543024,37.0019628],[27.254341,37.0018086],[27.2543819,37.0016242],[27.2544609,37.0012891],[27.2545118,37.0010683],[27.2545362,37.0009189],[27.2546032,37.0006024],[27.2546195,37.0004059],[27.2546988,37.0000407],[27.2547537,36.9998491],[27.2548148,36.9998483],[27.2548858,36.999859],[27.2549544,36.9996474],[27.2549707,36.999589],[27.2550289,36.9993592],[27.2550538,36.999253],[27.2550635,36.9991513],[27.2550637,36.9983998],[27.255066,36.9983601],[27.2550767,36.9983272],[27.2550872,36.9983102],[27.2550992,36.998285],[27.2551041,36.9982559],[27.2550971,36.9982233],[27.2550725,36.9981962],[27.2550394,36.998176],[27.254997,36.998163],[27.2549635,36.9981553],[27.2549149,36.998171],[27.2548819,36.9981886],[27.2548546,36.9982084],[27.2548417,36.9982395],[27.2548383,36.9982712],[27.254848,36.9983202],[27.2548633,36.999076],[27.2548557,36.999158],[27.2548222,36.9993348],[27.2547672,36.9995708],[27.2547096,36.9997991],[27.2546276,37.0001755],[27.2545226,37.0006606],[27.2543184,37.0015022],[27.2540564,37.0026921],[27.2540581,37.0028667],[27.2540598,37.0030442],[27.2541237,37.003338],[27.2542689,37.0036587],[27.2544876,37.0039849],[27.2546103,37.0041265],[27.254796,37.0042774],[27.2549961,37.0044366],[27.2552149,37.0045548],[27.2556335,37.0047231],[27.2558846,37.0048153],[27.2559087,37.0048327],[27.2559183,37.0048673],[27.2558602,37.0049734],[27.2558428,37.0050117],[27.2558411,37.0050391]]]}},{"type":"Feature","properties":{"source_id":"osm:way/505235451","source_name":"OpenStreetMap / OpenSeaMap seamark tags","source_version":"osm-snapshot-2026-09-13","feature_type":"breakwater","restriction_class":"HARD_NO_GO","classification_rule":"man_made=breakwater is a physical marine obstacle","tags":{"area":"yes","man_made":"breakwater"}},"geometry":{"type":"Polygon","coordinates":[[[27.3060057,36.8879126],[27.3059714,36.8880299],[27.3059247,36.8881232],[27.305885,36.8881886],[27.3058266,36.888267],[27.3057986,36.8883156],[27.3057846,36.8883567],[27.3058079,36.8883847],[27.3058359,36.8883828],[27.305899,36.8883156],[27.3059387,36.888239],[27.3060041,36.8881494],[27.3060344,36.8880616],[27.3060671,36.887972],[27.3060903,36.8879071],[27.3060057,36.8879126]]]}},{"type":"Feature","properties":{"source_id":"osm:way/505237502","source_name":"OpenStreetMap / OpenSeaMap seamark tags","source_version":"osm-snapshot-2026-09-13","feature_type":"breakwater","restriction_class":"HARD_NO_GO","classification_rule":"man_made=breakwater is a physical marine obstacle","tags":{"area":"yes","man_made":"breakwater"}},"geometry":{"type":"Polygon","coordinates":[[[27.1483984,36.786044],[27.1483913,36.7860213],[27.148432,36.7859859],[27.1484851,36.7859377],[27.1485205,36.7859051],[27.1485559,36.785898],[27.1485913,36.7858853],[27.1486231,36.7858583],[27.1486196,36.7858966],[27.1485612,36.7859391],[27.1485187,36.7859859],[27.1484816,36.7860227],[27.1484586,36.7860511],[27.1484249,36.7860667],[27.1483984,36.786044]]]}},{"type":"Feature","properties":{"source_id":"osm:way/505238504","source_name":"OpenStreetMap / OpenSeaMap seamark tags","source_version":"osm-snapshot-2026-09-13","feature_type":"breakwater","restriction_class":"HARD_NO_GO","classification_rule":"man_made=breakwater is a physical marine obstacle","tags":{"area":"yes","man_made":"breakwater"}},"geometry":{"type":"Polygon","coordinates":[[[27.1433777,36.7808376],[27.1434192,36.7808577],[27.1442065,36.780673],[27.1444809,36.7806063],[27.144676,36.780577],[27.1447472,36.7805754],[27.1447838,36.7806063],[27.1450358,36.7808147],[27.1454261,36.7811745],[27.1455887,36.7813373],[27.1455702,36.7813645],[27.1463206,36.7820326],[27.1466503,36.7823306],[27.1471305,36.7827747],[27.1471675,36.7828061],[27.1472001,36.7828083],[27.1472239,36.7827892],[27.1472239,36.7827716],[27.1471789,36.782722],[27.147065,36.7826086],[27.1464803,36.7820664],[27.1461184,36.7817117],[27.1456534,36.7812905],[27.1454211,36.7810801],[27.1448429,36.7805443],[27.1448027,36.7805083],[27.1447572,36.7805067],[27.1446976,36.7805165],[27.1445429,36.7805558],[27.1441221,36.7806529],[27.1437475,36.7807496],[27.1433777,36.7808376]]]}},{"type":"Feature","properties":{"source_id":"osm:way/505239021","source_name":"OpenStreetMap / OpenSeaMap seamark tags","source_version":"osm-snapshot-2026-09-13","feature_type":"breakwater","restriction_class":"HARD_NO_GO","classification_rule":"man_made=breakwater is a physical marine obstacle","tags":{"area":"yes","man_made":"breakwater"}},"geometry":{"type":"Polygon","coordinates":[[[27.1404548,36.778193],[27.1405195,36.778229],[27.1406921,36.7780729],[27.1408242,36.7779535],[27.1408047,36.7779345],[27.1407799,36.7779262],[27.1407498,36.7779331],[27.1406865,36.7779755],[27.140603,36.7780566],[27.1404548,36.778193]]]}},{"type":"Feature","properties":{"source_id":"osm:way/505239069","source_name":"OpenStreetMap / OpenSeaMap seamark tags","source_version":"osm-snapshot-2026-09-13","feature_type":"breakwater","restriction_class":"HARD_NO_GO","classification_rule":"man_made=breakwater is a physical marine obstacle","tags":{"area":"yes","man_made":"breakwater"}},"geometry":{"type":"Polygon","coordinates":[[[27.1386535,36.7768608],[27.1387365,36.7769325],[27.1387495,36.7768967],[27.1390131,36.7766608],[27.138993,36.7766343],[27.138967,36.7766238],[27.1386853,36.776866],[27.1386535,36.7768608]]]}},{"type":"Feature","properties":{"source_id":"osm:way/505239106","source_name":"OpenStreetMap / OpenSeaMap seamark tags","source_version":"osm-snapshot-2026-09-13","feature_type":"breakwater","restriction_class":"HARD_NO_GO","classification_rule":"man_made=breakwater is a physical marine obstacle","tags":{"area":"yes","man_made":"breakwater"}},"geometry":{"type":"Polygon","coordinates":[[[27.1175694,36.7618901],[27.1175867,36.7619095],[27.1176617,36.7617976],[27.1176562,36.7617862],[27.1176375,36.7617856],[27.1175694,36.7618901]]]}},{"type":"Feature","properties":{"source_id":"osm:way/505239201","source_name":"OpenStreetMap / OpenSeaMap seamark tags","source_version":"osm-snapshot-2026-09-13","feature_type":"breakwater","restriction_class":"HARD_NO_GO","classification_rule":"man_made=breakwater is a physical marine obstacle","tags":{"area":"yes","man_made":"breakwater"}},"geometry":{"type":"Polygon","coordinates":[[[27.1171524,36.761646],[27.1171746,36.761678],[27.117222,36.7616229],[27.117245,36.7615702],[27.1172362,36.7615528],[27.117222,36.7615609],[27.1171989,36.7616053],[27.1171524,36.761646]]]}},{"type":"Feature","properties":{"source_id":"osm:way/505239322","source_name":"OpenStreetMap / OpenSeaMap seamark tags","source_version":"osm-snapshot-2026-09-13","feature_type":"breakwater","restriction_class":"HARD_NO_GO","classification_rule":"man_made=breakwater is a physical marine obstacle","tags":{"area":"yes","man_made":"breakwater"}},"geometry":{"type":"Polygon","coordinates":[[[27.1165754,36.7613874],[27.1166002,36.7614063],[27.1166354,36.7613588],[27.1166721,36.7613198],[27.1166902,36.7612981],[27.1167079,36.7612592],[27.1167025,36.7612426],[27.1166855,36.7612598],[27.1166661,36.7612842],[27.1166223,36.761342],[27.1165754,36.7613874]]]}},{"type":"Feature","properties":{"source_id":"osm:way/505239414","source_name":"OpenStreetMap / OpenSeaMap seamark tags","source_version":"osm-snapshot-2026-09-13","feature_type":"breakwater","restriction_class":"HARD_NO_GO","classification_rule":"man_made=breakwater is a physical marine obstacle","tags":{"area":"yes","man_made":"breakwater"}},"geometry":{"type":"Polygon","coordinates":[[[27.1154805,36.7608425],[27.1155009,36.7608751],[27.1155713,36.7607688],[27.1155696,36.7607528],[27.1155521,36.7607444],[27.1155378,36.7607521],[27.1154805,36.7608425]]]}},{"type":"Feature","properties":{"source_id":"osm:way/505239584","source_name":"OpenStreetMap / OpenSeaMap seamark tags","source_version":"osm-snapshot-2026-09-13","feature_type":"breakwater","restriction_class":"HARD_NO_GO","classification_rule":"man_made=breakwater is a physical marine obstacle","tags":{"area":"yes","man_made":"breakwater"}},"geometry":{"type":"Polygon","coordinates":[[[27.1144244,36.760106],[27.1144488,36.7601243],[27.1145892,36.75997],[27.114586,36.7599548],[27.1145732,36.7599453],[27.1145557,36.7599494],[27.1144831,36.7600209],[27.1144244,36.760106]]]}},{"type":"Feature","properties":{"source_id":"osm:way/505239614","source_name":"OpenStreetMap / OpenSeaMap seamark tags","source_version":"osm-snapshot-2026-09-13","feature_type":"breakwater","restriction_class":"HARD_NO_GO","classification_rule":"man_made=breakwater is a physical marine obstacle","tags":{"area":"yes","man_made":"breakwater"}},"geometry":{"type":"Polygon","coordinates":[[[27.1136848,36.7594971],[27.1136848,36.7595285],[27.1137645,36.7594745],[27.1138544,36.7594303],[27.1138181,36.7594186],[27.1137524,36.7594538],[27.1136848,36.7594971]]]}},{"type":"Feature","properties":{"source_id":"osm:way/505254065","source_name":"OpenStreetMap / OpenSeaMap seamark tags","source_version":"osm-snapshot-2026-09-13","feature_type":"breakwater","restriction_class":"HARD_NO_GO","classification_rule":"man_made=breakwater is a physical marine obstacle","tags":{"area":"yes","man_made":"breakwater"}},"geometry":{"type":"Polygon","coordinates":[[[26.9707553,36.7366968],[26.9708679,36.7367169],[26.9709403,36.7367577],[26.9710081,36.7367947],[26.9710436,36.7368219],[26.9710697,36.7368391],[26.9710928,36.7368404],[26.9711267,36.736828],[26.9711391,36.7368095],[26.9711067,36.7367762],[26.9709434,36.7367021],[26.9708679,36.7366626],[26.9707563,36.7366078],[26.9707553,36.7366968]]]}},{"type":"Feature","properties":{"source_id":"osm:way/505254102","source_name":"OpenStreetMap / OpenSeaMap seamark tags","source_version":"osm-snapshot-2026-09-13","feature_type":"breakwater","restriction_class":"HARD_NO_GO","classification_rule":"man_made=breakwater is a physical marine obstacle","tags":{"area":"yes","man_made":"breakwater"}},"geometry":{"type":"Polygon","coordinates":[[[26.9724673,36.7364213],[26.9723777,36.7367439],[26.9723074,36.7369975],[26.9722281,36.737078],[26.9721257,36.7371816],[26.9720828,36.7372276],[26.9720477,36.7371977],[26.9720638,36.7371663],[26.9721441,36.7370892],[26.9722066,36.7370093],[26.9722614,36.7369271],[26.9724104,36.7363925],[26.9724673,36.7364213]]]}},{"type":"Feature","properties":{"source_id":"osm:way/505255134","source_name":"OpenStreetMap / OpenSeaMap seamark tags","source_version":"osm-snapshot-2026-09-13","feature_type":"breakwater","restriction_class":"HARD_NO_GO","classification_rule":"man_made=breakwater is a physical marine obstacle","tags":{"area":"yes","man_made":"breakwater"}},"geometry":{"type":"Polygon","coordinates":[[[26.9731199,36.7362832],[26.9730543,36.7363484],[26.9728266,36.7363532],[26.9722452,36.7361121],[26.9721314,36.7360274],[26.9719362,36.7358694],[26.9718915,36.7357863],[26.9718854,36.7357521],[26.9718834,36.7357147],[26.9719015,36.7356374],[26.9720195,36.7356416],[26.9720324,36.7357678],[26.9720879,36.7358778],[26.9722989,36.7360239],[26.9725034,36.7361351],[26.9727307,36.7362151],[26.9731199,36.7362832]]]}},{"type":"Feature","properties":{"source_id":"osm:way/505256804","source_name":"OpenStreetMap / OpenSeaMap seamark tags","source_version":"osm-snapshot-2026-09-13","feature_type":"breakwater","restriction_class":"HARD_NO_GO","classification_rule":"man_made=breakwater is a physical marine obstacle","tags":{"area":"yes","man_made":"breakwater"}},"geometry":{"type":"Polygon","coordinates":[[[26.9650071,36.7744707],[26.9649639,36.7742246],[26.9649633,36.7740731],[26.9649441,36.7739516],[26.9649917,36.7739286],[26.9650347,36.7739206],[26.965052,36.7739636],[26.9650452,36.7741752],[26.9650796,36.774474],[26.9650071,36.7744707]]]}},{"type":"Feature","properties":{"source_id":"osm:way/505256860","source_name":"OpenStreetMap / OpenSeaMap seamark tags","source_version":"osm-snapshot-2026-09-13","feature_type":"breakwater","restriction_class":"HARD_NO_GO","classification_rule":"man_made=breakwater is a physical marine obstacle","tags":{"area":"yes","man_made":"breakwater"}},"geometry":{"type":"Polygon","coordinates":[[[26.9632802,36.77481],[26.9632956,36.7748473],[26.9635368,36.7748514],[26.9640055,36.7748199],[26.9643966,36.7748118],[26.9644282,36.7747438],[26.9640442,36.7747561],[26.963711,36.7747781],[26.963422,36.7747971],[26.9632802,36.77481]]]}},{"type":"Feature","properties":{"source_id":"osm:way/505258045","source_name":"OpenStreetMap / OpenSeaMap seamark tags","source_version":"osm-snapshot-2026-09-13","feature_type":"breakwater","restriction_class":"HARD_NO_GO","classification_rule":"man_made=breakwater is a physical marine obstacle","tags":{"area":"yes","man_made":"breakwater"}},"geometry":{"type":"Polygon","coordinates":[[[27.0757736,36.8517421],[27.0757328,36.8518201],[27.0757227,36.8519388],[27.0757572,36.8519925],[27.0757979,36.8520136],[27.0764951,36.8522544],[27.0765622,36.8523064],[27.0766638,36.8523308],[27.0767512,36.8523878],[27.0768061,36.8524447],[27.0768529,36.8524691],[27.0769118,36.8524805],[27.0769739,36.8524925],[27.0770031,36.852503],[27.0770112,36.8525227],[27.0770075,36.8525484],[27.0769889,36.8525683],[27.0769333,36.8525748],[27.0768417,36.852555],[27.0767513,36.8525043],[27.0766407,36.8524191],[27.0764997,36.8523208],[27.0764011,36.8522857],[27.0759637,36.8521548],[27.075759,36.8521045],[27.0756624,36.8520418],[27.0756195,36.8519286],[27.0756034,36.8518326],[27.0756644,36.851774],[27.075693,36.8517641],[27.0757736,36.8517421]]]}},{"type":"Feature","properties":{"source_id":"osm:way/505258868","source_name":"OpenStreetMap / OpenSeaMap seamark tags","source_version":"osm-snapshot-2026-09-13","feature_type":"breakwater","restriction_class":"HARD_NO_GO","classification_rule":"man_made=breakwater is a physical marine obstacle","tags":{"area":"yes","man_made":"breakwater"}},"geometry":{"type":"Polygon","coordinates":[[[27.137886,36.613839],[27.1379121,36.6138203],[27.1382483,36.6139624],[27.1383262,36.6139922],[27.1383669,36.6139851],[27.1385669,36.6143189],[27.1386217,36.614353],[27.1386327,36.6143402],[27.1391428,36.6146157],[27.1392642,36.6146663],[27.1393623,36.6147113],[27.1394417,36.6147301],[27.1394954,36.6147994],[27.1395187,36.6148725],[27.1394907,36.6149084],[27.1393927,36.6148795],[27.139292,36.6147707],[27.1391503,36.6146998],[27.1389718,36.6145961],[27.1387031,36.61444],[27.1385637,36.6143745],[27.1384616,36.6143015],[27.1383842,36.6142012],[27.1383114,36.6140634],[27.1381118,36.6139486],[27.137886,36.613839]]]}},{"type":"Feature","properties":{"source_id":"osm:way/505259634","source_name":"OpenStreetMap / OpenSeaMap seamark tags","source_version":"osm-snapshot-2026-09-13","feature_type":"breakwater","restriction_class":"HARD_NO_GO","classification_rule":"man_made=breakwater is a physical marine obstacle","tags":{"area":"yes","man_made":"breakwater"}},"geometry":{"type":"Polygon","coordinates":[[[27.152819,36.6126697],[27.1529577,36.6126798],[27.1530745,36.6129312],[27.1531718,36.6131414],[27.1531931,36.6131855],[27.1532426,36.6132025],[27.1539558,36.613211],[27.1539947,36.6131968],[27.1540285,36.6131713],[27.1543794,36.6131784],[27.1543829,36.6131977],[27.1544186,36.613211],[27.1544565,36.6132326],[27.15446,36.6132581],[27.1544094,36.6132697],[27.1538011,36.6132491],[27.1536027,36.6132594],[27.1534031,36.6132626],[27.1532535,36.6132592],[27.1531639,36.6132474],[27.1531386,36.6132114],[27.1531158,36.6131592],[27.1530886,36.6130845],[27.1530312,36.6129475],[27.1529132,36.6127403],[27.152819,36.6126697]]]}},{"type":"Feature","properties":{"source_id":"osm:way/505259752","source_name":"OpenStreetMap / OpenSeaMap seamark tags","source_version":"osm-snapshot-2026-09-13","feature_type":"breakwater","restriction_class":"HARD_NO_GO","classification_rule":"man_made=breakwater is a physical marine obstacle","tags":{"area":"yes","man_made":"breakwater"}},"geometry":{"type":"Polygon","coordinates":[[[27.1693102,36.6202947],[27.1694545,36.6201647],[27.1696369,36.6200893],[27.169889,36.6200377],[27.1703128,36.619986],[27.170632,36.6199451],[27.1709297,36.6198956],[27.1713267,36.6198396],[27.171375,36.6198138],[27.1713522,36.6197518],[27.1716819,36.6197067],[27.1718618,36.6196834],[27.1720086,36.6196963],[27.1729159,36.61974],[27.1729802,36.6197612],[27.172993,36.6198009],[27.1729569,36.6198363],[27.1722425,36.6198162],[27.1721475,36.6198049],[27.1719615,36.6197998],[27.1718242,36.6198144],[27.1716273,36.6198576],[27.1714726,36.6198618],[27.1712354,36.6199336],[27.1709382,36.6199903],[27.1706025,36.6200225],[27.1704258,36.620029],[27.1701881,36.6200792],[27.1700082,36.6200844],[27.1696999,36.6201496],[27.1695712,36.6201814],[27.1694262,36.6202237],[27.1693102,36.6202947]]]}},{"type":"Feature","properties":{"source_id":"osm:way/505259843","source_name":"OpenStreetMap / OpenSeaMap seamark tags","source_version":"osm-snapshot-2026-09-13","feature_type":"breakwater","restriction_class":"HARD_NO_GO","classification_rule":"man_made=breakwater is a physical marine obstacle","tags":{"area":"yes","man_made":"breakwater"}},"geometry":{"type":"Polygon","coordinates":[[[27.1720936,36.6187925],[27.172026,36.6187606],[27.1719921,36.6187606],[27.1718596,36.6192948],[27.1718657,36.6193244],[27.1719006,36.6193374],[27.171929,36.619249],[27.1719816,36.6190856],[27.1719975,36.6189798],[27.1720125,36.6188807],[27.1720936,36.6187925]]]}},{"type":"Feature","properties":{"source_id":"osm:way/508823145","source_name":"OpenStreetMap / OpenSeaMap seamark tags","source_version":"osm-snapshot-2026-09-13","feature_type":"breakwater","restriction_class":"HARD_NO_GO","classification_rule":"man_made=breakwater is a physical marine obstacle","tags":{"man_made":"breakwater"}},"geometry":{"type":"LineString","coordinates":[[27.1779597,36.6185615],[27.1782982,36.6186256],[27.179237,36.619082],[27.1794623,36.6192154],[27.1795638,36.6191155]]}},{"type":"Feature","properties":{"source_id":"osm:way/508823146","source_name":"OpenStreetMap / OpenSeaMap seamark tags","source_version":"osm-snapshot-2026-09-13","feature_type":"breakwater","restriction_class":"HARD_NO_GO","classification_rule":"man_made=breakwater is a physical marine obstacle","tags":{"man_made":"breakwater"}},"geometry":{"type":"LineString","coordinates":[[27.1742738,36.618213],[27.1742803,36.6183285]]}},{"type":"Feature","properties":{"source_id":"osm:way/508823147","source_name":"OpenStreetMap / OpenSeaMap seamark tags","source_version":"osm-snapshot-2026-09-13","feature_type":"breakwater","restriction_class":"HARD_NO_GO","classification_rule":"man_made=breakwater is a physical marine obstacle","tags":{"man_made":"breakwater"}},"geometry":{"type":"LineString","coordinates":[[27.1731818,36.6182609],[27.1732047,36.6184318]]}},{"type":"Feature","properties":{"source_id":"osm:way/508823148","source_name":"OpenStreetMap / OpenSeaMap seamark tags","source_version":"osm-snapshot-2026-09-13","feature_type":"breakwater","restriction_class":"HARD_NO_GO","classification_rule":"man_made=breakwater is a physical marine obstacle","tags":{"man_made":"breakwater"}},"geometry":{"type":"LineString","coordinates":[[27.1764314,36.6181479],[27.1764287,36.6182682]]}},{"type":"Feature","properties":{"source_id":"osm:way/508823149","source_name":"OpenStreetMap / OpenSeaMap seamark tags","source_version":"osm-snapshot-2026-09-13","feature_type":"breakwater","restriction_class":"HARD_NO_GO","classification_rule":"man_made=breakwater is a physical marine obstacle","tags":{"man_made":"breakwater"}},"geometry":{"type":"LineString","coordinates":[[27.1754404,36.6182067],[27.175439,36.6183629]]}},{"type":"Feature","properties":{"source_id":"osm:way/508823150","source_name":"OpenStreetMap / OpenSeaMap seamark tags","source_version":"osm-snapshot-2026-09-13","feature_type":"breakwater","restriction_class":"HARD_NO_GO","classification_rule":"man_made=breakwater is a physical marine obstacle","tags":{"man_made":"breakwater"}},"geometry":{"type":"LineString","coordinates":[[27.1779378,36.6184679],[27.1779597,36.6185615],[27.1779978,36.6187246],[27.1778074,36.6190454],[27.1779227,36.6191423]]}},{"type":"Feature","properties":{"source_id":"osm:way/509968360","source_name":"OpenStreetMap / OpenSeaMap seamark tags","source_version":"osm-snapshot-2026-09-13","feature_type":"breakwater","restriction_class":"HARD_NO_GO","classification_rule":"man_made=breakwater is a physical marine obstacle","tags":{"area":"yes","man_made":"breakwater"}},"geometry":{"type":"Polygon","coordinates":[[[26.9293337,36.9884487],[26.929295,36.9884476],[26.9292507,36.9884644],[26.929218,36.9885222],[26.9291339,36.9887106],[26.9290919,36.9887852],[26.9290545,36.9888169],[26.9290662,36.9888784],[26.9290849,36.9889176],[26.9291643,36.9889586],[26.9292507,36.9890351],[26.9293067,36.989078],[26.9293651,36.9891246],[26.9294071,36.9891582],[26.9294655,36.989203],[26.9295355,36.9892253],[26.9296429,36.9892365],[26.929678,36.9892496],[26.9297223,36.989244],[26.9297854,36.9892626],[26.9298414,36.9892682],[26.9298861,36.9892744],[26.9299013,36.9892351],[26.9294989,36.9891693],[26.929109,36.9888537],[26.9293337,36.9884487]]]}},{"type":"Feature","properties":{"source_id":"osm:way/509968361","source_name":"OpenStreetMap / OpenSeaMap seamark tags","source_version":"osm-snapshot-2026-09-13","feature_type":"breakwater","restriction_class":"HARD_NO_GO","classification_rule":"man_made=breakwater is a physical marine obstacle","tags":{"area":"yes","man_made":"breakwater"}},"geometry":{"type":"Polygon","coordinates":[[[26.9302246,36.9887923],[26.9300915,36.988902],[26.9301142,36.9889239],[26.9301579,36.9888951],[26.9301918,36.9888791],[26.9302133,36.9888594],[26.9302426,36.9888434],[26.9302741,36.9888255],[26.9302246,36.9887923]]]}},{"type":"Feature","properties":{"source_id":"osm:way/577492893","source_name":"OpenStreetMap / OpenSeaMap seamark tags","source_version":"osm-snapshot-2026-09-13","feature_type":"breakwater","restriction_class":"HARD_NO_GO","classification_rule":"man_made=breakwater is a physical marine obstacle","tags":{"area":"yes","man_made":"breakwater"}},"geometry":{"type":"Polygon","coordinates":[[[27.5364617,37.1879928],[27.5362021,37.18769],[27.5361013,37.1875405],[27.5361013,37.1874962],[27.5361291,37.1874851],[27.5361847,37.1875018],[27.5362473,37.1875931],[27.5363133,37.1876817],[27.536348,37.1877509],[27.5364383,37.1878228],[27.536536,37.1879009],[27.5364617,37.1879928]]]}},{"type":"Feature","properties":{"source_id":"osm:way/577492895","source_name":"OpenStreetMap / OpenSeaMap seamark tags","source_version":"osm-snapshot-2026-09-13","feature_type":"breakwater","restriction_class":"HARD_NO_GO","classification_rule":"man_made=breakwater is a physical marine obstacle","tags":{"area":"yes","man_made":"breakwater"}},"geometry":{"type":"Polygon","coordinates":[[[27.5348955,37.1886212],[27.5346351,37.188083],[27.5346351,37.1880166],[27.5346734,37.1879003],[27.5347394,37.1878533],[27.5347741,37.187856],[27.5350625,37.1877481],[27.5353578,37.1876484],[27.535462,37.1875986],[27.5355663,37.1875599],[27.5356114,37.1875128],[27.5355975,37.1874658],[27.5355524,37.1874519],[27.5354933,37.1874547],[27.535396,37.1875045],[27.5352883,37.1875626],[27.535066,37.1876401],[27.5348332,37.187701],[27.5346907,37.1877453],[27.5345518,37.1878533],[27.5344996,37.1879225],[27.5344996,37.1880055],[27.5345309,37.1881522],[27.5346317,37.1883626],[27.5347081,37.188548],[27.5347498,37.1887279],[27.5347534,37.1887737],[27.5348955,37.1886212]]]}},{"type":"Feature","properties":{"source_id":"osm:way/616927896","source_name":"OpenStreetMap / OpenSeaMap seamark tags","source_version":"osm-snapshot-2026-09-13","feature_type":"breakwater","restriction_class":"HARD_NO_GO","classification_rule":"man_made=breakwater is a physical marine obstacle","tags":{"area":"yes","man_made":"breakwater","material":"stone"}},"geometry":{"type":"Polygon","coordinates":[[[27.251882,37.0146476],[27.2518818,37.0146272],[27.2518869,37.0146061],[27.2518989,37.0145839],[27.2519161,37.0145666],[27.2519422,37.0145529],[27.2519725,37.0145458],[27.2520011,37.0145423],[27.252035,37.0145456],[27.2520656,37.0145566],[27.2520872,37.0145731],[27.2521046,37.0145929],[27.2521187,37.0146172],[27.2521208,37.0146427],[27.2521177,37.014663],[27.2521103,37.0146783],[27.2521031,37.0146986],[27.2520892,37.0147138],[27.2520311,37.0146901],[27.2520437,37.0146836],[27.2520541,37.0146752],[27.2520646,37.01466],[27.2520679,37.0146488],[27.2520677,37.014634],[27.2520612,37.0146181],[27.2520519,37.014607],[27.2520412,37.0145991],[27.2520286,37.0145933],[27.2520161,37.01459],[27.252003,37.0145888],[27.2519818,37.0145912],[27.2519623,37.0145989],[27.2519484,37.0146098],[27.251942,37.0146179],[27.2519375,37.0146268],[27.2519347,37.0146428],[27.2519384,37.0146597],[27.2519439,37.0146691],[27.2519515,37.0146775],[27.2519601,37.014684],[27.25197,37.0146892],[27.2519854,37.0146959],[27.2520227,37.0148983],[27.2520472,37.0150135],[27.2520598,37.0150538],[27.2520733,37.0150887],[27.2520871,37.0151179],[27.2521083,37.0151544],[27.252137,37.0151931],[27.2521736,37.0152317],[27.2522044,37.0152598],[27.2522414,37.0152904],[27.2522911,37.0153223],[27.2523465,37.0153523],[27.2523917,37.0153714],[27.2524593,37.01539],[27.252557,37.0154122],[27.252713,37.0154533],[27.2526568,37.0154806],[27.2524704,37.0154363],[27.2523563,37.0153963],[27.2522461,37.0153463],[27.2521591,37.0152833],[27.2520895,37.0152064],[27.2520361,37.0151249],[27.2520036,37.0150443],[27.2519525,37.0148349],[27.2519235,37.0147219],[27.2519113,37.0147031],[27.2518948,37.0146842],[27.2518864,37.0146671],[27.251882,37.0146476]]]}},{"type":"Feature","properties":{"source_id":"osm:way/616927898","source_name":"OpenStreetMap / OpenSeaMap seamark tags","source_version":"osm-snapshot-2026-09-13","feature_type":"breakwater","restriction_class":"HARD_NO_GO","classification_rule":"man_made=breakwater is a physical marine obstacle","tags":{"area":"yes","man_made":"breakwater"}},"geometry":{"type":"Polygon","coordinates":[[[27.2524807,37.0153209],[27.2524693,37.0153386],[27.2525216,37.0153559],[27.2525784,37.0153631],[27.2526152,37.0153621],[27.2526455,37.0153601],[27.2526517,37.0153442],[27.2525673,37.0153347],[27.2525284,37.0153288],[27.2524807,37.0153209]]]}},{"type":"Feature","properties":{"source_id":"osm:way/616927900","source_name":"OpenStreetMap / OpenSeaMap seamark tags","source_version":"osm-snapshot-2026-09-13","feature_type":"breakwater","restriction_class":"HARD_NO_GO","classification_rule":"man_made=breakwater is a physical marine obstacle","tags":{"area":"yes","man_made":"breakwater","material":"stone"}},"geometry":{"type":"Polygon","coordinates":[[[27.2523902,37.0144039],[27.2523794,37.0143883],[27.2523746,37.0143743],[27.2523726,37.0143563],[27.2523769,37.0143336],[27.2523892,37.0143048],[27.2524078,37.0142829],[27.2524215,37.0142704],[27.2524391,37.0142595],[27.2524567,37.0142533],[27.2524831,37.0142478],[27.2525085,37.014247],[27.2525378,37.0142462],[27.2525681,37.0142408],[27.2526053,37.0142306],[27.2526317,37.0142197],[27.25266,37.0142056],[27.2527021,37.0141775],[27.2527412,37.014144],[27.2527802,37.0141109],[27.2528007,37.0140774],[27.2528216,37.0140337],[27.2528413,37.0139921],[27.2528552,37.0139484],[27.2528733,37.0138835],[27.2529018,37.0138193],[27.2529359,37.0137656],[27.252985,37.0137058],[27.253025,37.013667],[27.2530748,37.0136296],[27.2531026,37.0136082],[27.2531053,37.0135844],[27.2531101,37.0135623],[27.2531234,37.0135316],[27.2531512,37.0135095],[27.2532021,37.0134922],[27.2532623,37.0134914],[27.253309,37.0135067],[27.2533405,37.0135319],[27.2533591,37.0135585],[27.2533688,37.0135866],[27.2533698,37.0136123],[27.253364,37.0136358],[27.2533473,37.0136576],[27.2533288,37.013679],[27.2533047,37.0136948],[27.2532725,37.013698],[27.2532339,37.0136988],[27.2531982,37.0136996],[27.2531653,37.0137002],[27.253144,37.0137084],[27.2531158,37.0136894],[27.2530678,37.0137373],[27.253045,37.013766],[27.2530223,37.0138004],[27.2530031,37.0138397],[27.2529791,37.0138942],[27.2529587,37.0139545],[27.2529935,37.0139622],[27.2529839,37.0139986],[27.2530043,37.0140005],[27.2529927,37.0140644],[27.2529901,37.0140781],[27.252986,37.0140996],[27.2529827,37.0141163],[27.2529623,37.0141201],[27.2529444,37.0141287],[27.2529264,37.0141402],[27.2529072,37.0141584],[27.2528928,37.0141785],[27.2528784,37.0142043],[27.2528617,37.0142283],[27.2528437,37.0142474],[27.2528137,37.0142713],[27.2527526,37.0143134],[27.2527022,37.0143383],[27.2526603,37.0143536],[27.2526387,37.0143613],[27.2526219,37.0143718],[27.2526111,37.0143862],[27.2525979,37.0144015],[27.2525812,37.0144187],[27.2525596,37.0144312],[27.2525296,37.0144407],[27.2524997,37.0144407],[27.2524685,37.0144379],[27.2524385,37.0144293],[27.2524098,37.0144178],[27.2523902,37.0144039]]]}},{"type":"Feature","properties":{"source_id":"osm:way/628382396","source_name":"OpenStreetMap / OpenSeaMap seamark tags","source_version":"osm-snapshot-2026-09-13","feature_type":"obstruction","restriction_class":"HARD_NO_GO","classification_rule":"seamark:type=obstruction is a physical hazard","tags":{"seamark:obstruction:water_level":"submerged","seamark:type":"obstruction"}},"geometry":{"type":"Polygon","coordinates":[[[27.1386874,36.6576762],[27.1385157,36.6574223],[27.138631,36.6572458],[27.1388134,36.6567509],[27.1387169,36.6563055],[27.139425,36.6565336],[27.1400177,36.6568284],[27.1399507,36.6572458],[27.1397173,36.657362],[27.1394142,36.6575901],[27.1392694,36.6579236],[27.1390334,36.6578677],[27.1386874,36.6576762]]]}},{"type":"Feature","properties":{"source_id":"osm:way/791756545","source_name":"OpenStreetMap / OpenSeaMap seamark tags","source_version":"osm-snapshot-2026-09-13","feature_type":"breakwater","restriction_class":"HARD_NO_GO","classification_rule":"man_made=breakwater is a physical marine obstacle","tags":{"man_made":"breakwater"}},"geometry":{"type":"LineString","coordinates":[[27.6894731,36.7218285],[27.6895544,36.7217352],[27.6897155,36.7217365],[27.6905592,36.7220343],[27.6908048,36.7220586],[27.6908208,36.7221302],[27.6910531,36.7222595],[27.6911681,36.722273],[27.6913158,36.7223463],[27.6913485,36.7224367]]}},{"type":"Feature","properties":{"source_id":"osm:way/845694812","source_name":"OpenStreetMap / OpenSeaMap seamark tags","source_version":"osm-snapshot-2026-09-13","feature_type":"breakwater","restriction_class":"HARD_NO_GO","classification_rule":"man_made=breakwater is a physical marine obstacle","tags":{"man_made":"breakwater"}},"geometry":{"type":"LineString","coordinates":[[27.6182921,36.7727216],[27.6178049,36.7727072],[27.6174711,36.7725988],[27.6172005,36.7724073],[27.6160502,36.771316],[27.6160141,36.7712185],[27.6160367,36.7710884],[27.6160367,36.7709872],[27.6159645,36.7708969],[27.6151164,36.7701381],[27.6149676,36.7699393],[27.6149211,36.7697966],[27.6149134,36.7697731],[27.6149495,36.7695924]]}},{"type":"Feature","properties":{"source_id":"osm:way/988445482","source_name":"OpenStreetMap / OpenSeaMap seamark tags","source_version":"osm-snapshot-2026-09-13","feature_type":"breakwater","restriction_class":"HARD_NO_GO","classification_rule":"man_made=breakwater is a physical marine obstacle","tags":{"area":"yes","man_made":"breakwater"}},"geometry":{"type":"Polygon","coordinates":[[[27.5873217,37.2276888],[27.5863104,37.2276973],[27.5861871,37.227787],[27.5861388,37.2278511],[27.586104,37.2279023],[27.5860852,37.2279578],[27.5860906,37.2280518],[27.5860932,37.2301362],[27.5862032,37.2301319],[27.5862019,37.2300338],[27.5861737,37.2279386],[27.5861979,37.2278916],[27.5862381,37.2278446],[27.586356,37.2277742],[27.5870454,37.2277666],[27.5873957,37.2277628],[27.5873217,37.2276888]]]}}]}